G21 ; Millimeter units
G90 ; Absolute positioning
G28 ; Home all axes
G0 Z7 ; Lift pen
G0 Z7
G0 X10.000 Y223.636
G1 Z2
G1 X10.606 Y223.939 F1000
G1 X11.515 Y224.848 F1000
G1 X12.424 Y226.061 F1000
G1 X13.636 Y228.182 F1000
G1 X14.545 Y230.000 F1000
G1 X14.545 Y223.636 F1000
G1 X14.242 Y224.545 F1000
G1 X13.636 Y225.455 F1000
G1 X13.030 Y226.061 F1000
G1 X12.121 Y226.667 F1000
G1 X11.515 Y226.667 F1000
G1 X11.212 Y226.364 F1000
G1 X11.212 Y225.758 F1000
G1 X11.515 Y225.152 F1000
G1 X12.121 Y224.545 F1000
G1 X13.030 Y223.939 F1000
G1 X13.939 Y223.636 F1000
G1 X15.455 Y223.636 F1000
G0 Z7
G0 Z7
G0 X19.644 Y229.394
G1 Z2
G1 X19.947 Y229.091 F1000
G1 X19.947 Y228.182 F1000
G1 X19.644 Y226.970 F1000
G1 X19.341 Y226.061 F1000
G1 X19.038 Y225.455 F1000
G1 X18.432 Y224.545 F1000
G1 X17.826 Y223.939 F1000
G1 X17.220 Y223.636 F1000
G1 X16.917 Y223.636 F1000
G1 X16.614 Y223.939 F1000
G1 X16.614 Y224.848 F1000
G1 X16.917 Y226.364 F1000
G1 X17.220 Y227.273 F1000
G1 X17.523 Y227.879 F1000
G1 X18.129 Y228.788 F1000
G1 X18.735 Y229.394 F1000
G1 X19.341 Y229.697 F1000
G1 X20.250 Y230.000 F1000
G1 X21.159 Y230.000 F1000
G1 X21.765 Y229.697 F1000
G1 X22.068 Y229.091 F1000
G1 X22.068 Y228.485 F1000
G1 X21.765 Y227.879 F1000
G1 X21.462 Y227.576 F1000
G1 X20.856 Y227.273 F1000
G1 X19.947 Y226.970 F1000
G0 Z7
G0 X19.644 Y226.970
G1 Z2
G1 X19.947 Y226.970 F1000
G1 X20.856 Y226.667 F1000
G1 X21.159 Y226.364 F1000
G1 X21.462 Y225.758 F1000
G1 X21.462 Y224.848 F1000
G1 X21.159 Y224.242 F1000
G1 X20.856 Y223.939 F1000
G1 X20.250 Y223.636 F1000
G1 X19.341 Y223.636 F1000
G1 X18.735 Y223.939 F1000
G1 X18.432 Y224.545 F1000
G0 Z7
G0 Z7
G0 X25.955 Y228.182
G1 Z2
G1 X25.955 Y227.879 F1000
G1 X26.258 Y227.576 F1000
G1 X26.864 Y227.576 F1000
G1 X27.470 Y227.879 F1000
G1 X27.773 Y228.485 F1000
G1 X27.773 Y229.091 F1000
G1 X27.470 Y229.697 F1000
G1 X26.864 Y230.000 F1000
G1 X25.955 Y230.000 F1000
G1 X25.045 Y229.697 F1000
G1 X24.439 Y229.091 F1000
G1 X23.833 Y228.182 F1000
G1 X23.530 Y227.576 F1000
G1 X23.227 Y226.364 F1000
G1 X23.227 Y225.152 F1000
G1 X23.530 Y224.242 F1000
G1 X23.833 Y223.939 F1000
G1 X24.439 Y223.636 F1000
G1 X25.045 Y223.636 F1000
G1 X25.955 Y223.939 F1000
G1 X26.561 Y224.545 F1000
G1 X26.864 Y225.152 F1000
G0 Z7
G0 Z7
G0 X31.962 Y230.000
G1 Z2
G1 X31.356 Y229.697 F1000
G1 X31.053 Y229.091 F1000
G1 X30.750 Y227.879 F1000
G1 X30.447 Y226.061 F1000
G1 X30.144 Y225.152 F1000
G1 X29.841 Y224.545 F1000
G1 X29.235 Y223.939 F1000
G1 X28.629 Y223.636 F1000
G1 X28.023 Y223.636 F1000
G1 X27.720 Y223.939 F1000
G1 X27.720 Y224.545 F1000
G1 X28.023 Y224.848 F1000
G1 X28.629 Y224.848 F1000
G1 X29.235 Y224.545 F1000
G1 X29.841 Y223.939 F1000
G1 X30.750 Y223.636 F1000
G1 X31.659 Y223.636 F1000
G1 X32.568 Y223.939 F1000
G1 X33.174 Y224.545 F1000
G1 X33.780 Y225.758 F1000
G1 X34.083 Y227.273 F1000
G1 X34.083 Y228.485 F1000
G1 X33.780 Y229.394 F1000
G1 X33.477 Y229.697 F1000
G1 X32.871 Y230.000 F1000
G1 X31.962 Y230.000 F1000
G1 X31.356 Y229.394 F1000
G1 X31.356 Y228.788 F1000
G1 X31.659 Y227.879 F1000
G1 X32.265 Y226.970 F1000
G1 X32.871 Y226.364 F1000
G1 X33.780 Y225.758 F1000
G1 X34.386 Y225.455 F1000
G0 Z7
G0 Z7
G0 X38.879 Y228.788
G1 Z2
G1 X38.879 Y228.485 F1000
G1 X39.182 Y228.182 F1000
G1 X39.788 Y228.182 F1000
G1 X40.091 Y228.485 F1000
G1 X40.091 Y229.091 F1000
G1 X39.788 Y229.697 F1000
G1 X38.879 Y230.000 F1000
G1 X37.667 Y230.000 F1000
G1 X36.758 Y229.697 F1000
G1 X36.455 Y229.091 F1000
G1 X36.455 Y228.182 F1000
G1 X36.758 Y227.576 F1000
G1 X37.061 Y227.273 F1000
G1 X37.970 Y226.970 F1000
G1 X37.061 Y226.970 F1000
G1 X36.152 Y226.667 F1000
G1 X35.848 Y226.364 F1000
G1 X35.545 Y225.758 F1000
G1 X35.545 Y224.848 F1000
G1 X35.848 Y224.242 F1000
G1 X36.152 Y223.939 F1000
G1 X37.061 Y223.636 F1000
G1 X37.970 Y223.636 F1000
G1 X38.879 Y223.939 F1000
G1 X39.485 Y224.545 F1000
G1 X39.788 Y225.152 F1000
G0 Z7
G0 Z7
G0 X43.371 Y228.182
G1 Z2
G1 X42.765 Y228.182 F1000
G1 X42.159 Y228.485 F1000
G1 X41.856 Y229.091 F1000
G1 X42.159 Y229.697 F1000
G1 X43.068 Y230.000 F1000
G1 X43.977 Y230.000 F1000
G1 X45.189 Y229.697 F1000
G1 X46.098 Y229.697 F1000
G1 X46.705 Y230.000 F1000
G0 Z7
G0 X45.189 Y229.697
G1 Z2
G1 X44.583 Y227.576 F1000
G1 X43.977 Y225.758 F1000
G1 X43.371 Y224.545 F1000
G1 X42.765 Y223.939 F1000
G1 X42.159 Y223.636 F1000
G1 X41.553 Y223.636 F1000
G1 X40.947 Y223.939 F1000
G1 X40.644 Y224.545 F1000
G1 X40.644 Y225.152 F1000
G1 X40.947 Y225.455 F1000
G1 X41.553 Y225.455 F1000
G1 X42.159 Y225.152 F1000
G0 Z7
G0 X43.068 Y226.970
G1 Z2
G1 X45.795 Y226.970 F1000
G0 Z7
G0 Z7
G0 X50.591 Y228.182
G1 Z2
G1 X50.591 Y227.879 F1000
G1 X50.894 Y227.576 F1000
G1 X51.500 Y227.576 F1000
G1 X52.107 Y227.879 F1000
G1 X52.410 Y228.485 F1000
G1 X52.410 Y229.091 F1000
G1 X52.107 Y229.697 F1000
G1 X51.500 Y230.000 F1000
G1 X50.591 Y230.000 F1000
G1 X49.682 Y229.697 F1000
G1 X49.076 Y229.091 F1000
G1 X48.470 Y228.182 F1000
G1 X48.167 Y227.576 F1000
G1 X47.864 Y226.364 F1000
G1 X47.864 Y225.152 F1000
G1 X48.167 Y224.242 F1000
G1 X48.470 Y223.939 F1000
G1 X49.076 Y223.636 F1000
G1 X49.682 Y223.636 F1000
G1 X50.591 Y223.939 F1000
G1 X51.197 Y224.545 F1000
G0 Z7
G0 X49.985 Y223.864
G1 Z2
G1 X48.167 Y220.909 F1000
G1 X47.864 Y220.303 F1000
G1 X47.258 Y220.000 F1000
G1 X46.955 Y220.303 F1000
G1 X46.955 Y220.909 F1000
G1 X47.258 Y221.818 F1000
G1 X48.167 Y222.727 F1000
G1 X49.076 Y223.333 F1000
G1 X49.682 Y223.636 F1000
G1 X50.591 Y224.242 F1000
G1 X51.500 Y225.152 F1000
G0 Z7
G0 Z7
G0 X54.781 Y227.879
G1 Z2
G1 X54.175 Y228.182 F1000
G1 X53.872 Y228.788 F1000
G1 X53.872 Y229.091 F1000
G1 X54.175 Y229.697 F1000
G1 X54.781 Y230.000 F1000
G1 X55.084 Y230.000 F1000
G1 X55.690 Y229.697 F1000
G1 X55.993 Y229.091 F1000
G1 X55.993 Y228.485 F1000
G1 X55.690 Y227.273 F1000
G1 X55.084 Y225.455 F1000
G1 X54.478 Y224.242 F1000
G1 X53.872 Y223.636 F1000
G1 X53.266 Y223.636 F1000
G1 X52.963 Y223.939 F1000
G1 X52.963 Y224.545 F1000
G0 Z7
G0 X54.781 Y226.364
G1 Z2
G1 X57.508 Y227.273 F1000
G1 X58.114 Y227.576 F1000
G1 X59.023 Y228.182 F1000
G1 X59.629 Y228.788 F1000
G1 X59.932 Y229.394 F1000
G1 X59.932 Y229.697 F1000
G1 X59.629 Y230.000 F1000
G1 X59.326 Y230.000 F1000
G1 X58.720 Y229.394 F1000
G1 X58.114 Y228.182 F1000
G1 X57.508 Y226.364 F1000
G1 X57.205 Y224.848 F1000
G1 X57.205 Y223.939 F1000
G1 X57.508 Y223.636 F1000
G1 X57.811 Y223.636 F1000
G1 X58.417 Y223.939 F1000
G1 X58.720 Y224.242 F1000
G1 X59.326 Y225.152 F1000
G0 Z7
G0 Z7
G0 X64.425 Y225.152
G1 Z2
G1 X63.819 Y225.758 F1000
G1 X63.213 Y226.667 F1000
G1 X62.910 Y227.273 F1000
G1 X62.607 Y228.182 F1000
G1 X62.607 Y229.091 F1000
G1 X62.910 Y229.697 F1000
G1 X63.213 Y230.000 F1000
G1 X63.819 Y230.000 F1000
G1 X64.122 Y229.697 F1000
G1 X64.425 Y229.091 F1000
G1 X64.425 Y228.182 F1000
G1 X64.122 Y226.667 F1000
G1 X63.516 Y225.152 F1000
G1 X63.213 Y224.545 F1000
G1 X62.607 Y223.939 F1000
G1 X62.000 Y223.636 F1000
G1 X61.394 Y223.636 F1000
G1 X60.788 Y223.939 F1000
G1 X60.485 Y224.545 F1000
G1 X60.485 Y225.152 F1000
G1 X60.788 Y225.455 F1000
G1 X61.394 Y225.455 F1000
G1 X62.000 Y225.152 F1000
G0 Z7
G0 Z7
G0 X67.705 Y222.727
G1 Z2
G1 X67.099 Y223.636 F1000
G1 X66.493 Y225.152 F1000
G1 X66.190 Y226.970 F1000
G1 X66.190 Y228.788 F1000
G1 X66.493 Y229.697 F1000
G1 X67.099 Y230.000 F1000
G1 X67.705 Y230.000 F1000
G1 X68.008 Y229.697 F1000
G1 X68.311 Y228.788 F1000
G1 X68.311 Y227.879 F1000
G1 X68.008 Y226.364 F1000
G1 X67.099 Y223.636 F1000
G1 X66.493 Y221.818 F1000
G1 X66.190 Y220.909 F1000
G1 X65.887 Y220.303 F1000
G1 X65.281 Y220.000 F1000
G1 X64.978 Y220.303 F1000
G1 X64.978 Y220.909 F1000
G1 X65.281 Y221.818 F1000
G1 X65.887 Y222.727 F1000
G1 X66.493 Y223.333 F1000
G1 X67.402 Y223.939 F1000
G1 X68.614 Y224.545 F1000
G0 Z7
G0 Z7
G0 X70.985 Y227.879
G1 Z2
G1 X70.379 Y228.182 F1000
G1 X70.076 Y228.788 F1000
G1 X70.076 Y229.091 F1000
G1 X70.379 Y229.697 F1000
G1 X70.985 Y230.000 F1000
G1 X71.288 Y230.000 F1000
G1 X71.894 Y229.697 F1000
G1 X72.197 Y229.091 F1000
G1 X72.197 Y228.485 F1000
G1 X71.894 Y227.273 F1000
G1 X71.288 Y225.455 F1000
G1 X70.682 Y224.242 F1000
G1 X70.076 Y223.636 F1000
G1 X69.470 Y223.636 F1000
G1 X69.167 Y223.939 F1000
G1 X69.167 Y224.545 F1000
G0 Z7
G0 X76.137 Y229.091
G1 Z2
G1 X76.137 Y229.697 F1000
G1 X75.834 Y230.000 F1000
G1 X75.531 Y230.000 F1000
G1 X74.925 Y229.697 F1000
G1 X74.319 Y229.091 F1000
G1 X73.713 Y228.182 F1000
G1 X73.107 Y227.576 F1000
G1 X72.500 Y227.273 F1000
G1 X71.894 Y227.273 F1000
G0 Z7
G0 X72.500 Y227.273
G1 Z2
G1 X72.803 Y226.667 F1000
G1 X72.803 Y224.545 F1000
G1 X73.107 Y223.939 F1000
G1 X73.410 Y223.636 F1000
G1 X73.713 Y223.636 F1000
G1 X74.319 Y223.939 F1000
G1 X74.622 Y224.242 F1000
G1 X75.228 Y225.152 F1000
G0 Z7
G0 Z7
G0 X77.599 Y226.364
G1 Z2
G1 X78.205 Y226.364 F1000
G1 X79.417 Y226.667 F1000
G1 X80.326 Y227.273 F1000
G1 X80.932 Y227.879 F1000
G1 X81.235 Y228.485 F1000
G1 X81.235 Y229.394 F1000
G1 X80.932 Y230.000 F1000
G1 X80.326 Y230.000 F1000
G1 X80.023 Y229.697 F1000
G1 X79.720 Y229.091 F1000
G1 X79.417 Y227.576 F1000
G1 X79.114 Y226.061 F1000
G1 X78.811 Y225.152 F1000
G1 X78.508 Y224.545 F1000
G1 X77.902 Y223.939 F1000
G1 X77.296 Y223.636 F1000
G1 X76.690 Y223.636 F1000
G1 X76.387 Y223.939 F1000
G1 X76.387 Y224.545 F1000
G1 X76.690 Y224.848 F1000
G1 X77.296 Y224.848 F1000
G1 X77.902 Y224.545 F1000
G1 X78.811 Y223.939 F1000
G1 X79.720 Y223.636 F1000
G1 X80.326 Y223.636 F1000
G1 X81.235 Y223.939 F1000
G1 X81.841 Y224.545 F1000
G0 Z7
G0 Z7
G0 X83.607 Y227.879
G1 Z2
G1 X83.000 Y228.182 F1000
G1 X82.697 Y228.788 F1000
G1 X82.697 Y229.091 F1000
G1 X83.000 Y229.697 F1000
G1 X83.607 Y230.000 F1000
G1 X83.910 Y230.000 F1000
G1 X84.516 Y229.697 F1000
G1 X84.819 Y229.091 F1000
G1 X84.819 Y228.485 F1000
G1 X84.516 Y226.970 F1000
G1 X84.213 Y225.758 F1000
G1 X83.607 Y223.636 F1000
G0 Z7
G0 X84.213 Y225.758
G1 Z2
G1 X85.122 Y228.182 F1000
G1 X85.728 Y229.394 F1000
G1 X86.031 Y229.697 F1000
G1 X86.637 Y230.000 F1000
G1 X86.940 Y230.000 F1000
G1 X87.546 Y229.697 F1000
G1 X87.849 Y229.091 F1000
G1 X87.849 Y228.485 F1000
G1 X87.546 Y226.970 F1000
G1 X87.243 Y225.758 F1000
G1 X86.637 Y223.636 F1000
G0 Z7
G0 X87.243 Y225.758
G1 Z2
G1 X88.152 Y228.182 F1000
G1 X88.758 Y229.394 F1000
G1 X89.061 Y229.697 F1000
G1 X89.667 Y230.000 F1000
G1 X89.970 Y230.000 F1000
G1 X90.576 Y229.697 F1000
G1 X90.879 Y229.091 F1000
G1 X90.879 Y228.485 F1000
G1 X90.576 Y226.970 F1000
G1 X89.970 Y224.848 F1000
G1 X89.970 Y223.939 F1000
G1 X90.273 Y223.636 F1000
G1 X90.576 Y223.636 F1000
G1 X91.182 Y223.939 F1000
G1 X91.485 Y224.242 F1000
G1 X92.091 Y225.152 F1000
G0 Z7
G0 Z7
G0 X93.857 Y227.879
G1 Z2
G1 X93.250 Y228.182 F1000
G1 X92.947 Y228.788 F1000
G1 X92.947 Y229.091 F1000
G1 X93.250 Y229.697 F1000
G1 X93.857 Y230.000 F1000
G1 X94.160 Y230.000 F1000
G1 X94.766 Y229.697 F1000
G1 X95.069 Y229.091 F1000
G1 X95.069 Y228.485 F1000
G1 X94.766 Y226.970 F1000
G1 X94.463 Y225.758 F1000
G1 X93.857 Y223.636 F1000
G0 Z7
G0 X94.463 Y225.758
G1 Z2
G1 X95.372 Y228.182 F1000
G1 X95.978 Y229.394 F1000
G1 X96.281 Y229.697 F1000
G1 X96.887 Y230.000 F1000
G1 X97.493 Y230.000 F1000
G1 X98.099 Y229.697 F1000
G1 X98.402 Y229.091 F1000
G1 X98.402 Y228.485 F1000
G1 X98.099 Y226.970 F1000
G1 X97.493 Y224.848 F1000
G1 X97.493 Y223.939 F1000
G1 X97.796 Y223.636 F1000
G1 X98.099 Y223.636 F1000
G1 X98.705 Y223.939 F1000
G1 X99.008 Y224.242 F1000
G1 X99.614 Y225.152 F1000
G0 Z7
G0 Z7
G0 X103.500 Y230.000
G1 Z2
G1 X102.591 Y229.697 F1000
G1 X101.985 Y229.091 F1000
G1 X101.379 Y228.182 F1000
G1 X101.076 Y227.576 F1000
G1 X100.773 Y226.364 F1000
G1 X100.773 Y225.152 F1000
G1 X101.076 Y224.242 F1000
G1 X101.379 Y223.939 F1000
G1 X101.985 Y223.636 F1000
G1 X102.591 Y223.636 F1000
G1 X103.500 Y223.939 F1000
G1 X104.107 Y224.545 F1000
G1 X104.713 Y225.455 F1000
G1 X105.016 Y226.061 F1000
G1 X105.319 Y227.273 F1000
G1 X105.319 Y228.485 F1000
G1 X105.016 Y229.394 F1000
G1 X104.713 Y229.697 F1000
G1 X104.107 Y230.000 F1000
G1 X103.500 Y230.000 F1000
G1 X102.894 Y229.394 F1000
G1 X102.894 Y228.485 F1000
G1 X103.197 Y227.576 F1000
G1 X103.803 Y226.667 F1000
G1 X104.410 Y226.061 F1000
G1 X105.319 Y225.455 F1000
G1 X105.925 Y225.152 F1000
G0 Z7
G0 Z7
G0 X110.114 Y229.394
G1 Z2
G1 X110.417 Y229.091 F1000
G1 X110.417 Y228.182 F1000
G1 X110.114 Y226.970 F1000
G1 X109.811 Y226.061 F1000
G1 X109.508 Y225.455 F1000
G1 X108.902 Y224.545 F1000
G1 X108.296 Y223.939 F1000
G1 X107.690 Y223.636 F1000
G1 X107.387 Y223.636 F1000
G1 X107.084 Y223.939 F1000
G1 X107.084 Y224.848 F1000
G1 X107.387 Y226.364 F1000
G1 X107.690 Y227.273 F1000
G1 X107.993 Y227.879 F1000
G1 X108.599 Y228.788 F1000
G1 X109.205 Y229.394 F1000
G1 X109.811 Y229.697 F1000
G1 X110.720 Y230.000 F1000
G1 X112.235 Y230.000 F1000
G1 X112.841 Y229.697 F1000
G1 X113.144 Y229.394 F1000
G1 X113.447 Y228.788 F1000
G1 X113.447 Y227.879 F1000
G1 X113.144 Y227.273 F1000
G1 X112.841 Y226.970 F1000
G1 X112.235 Y226.667 F1000
G1 X111.326 Y226.667 F1000
G1 X110.720 Y226.970 F1000
G1 X110.417 Y227.273 F1000
G0 Z7
G0 Z7
G0 X117.637 Y228.182
G1 Z2
G1 X117.334 Y227.576 F1000
G1 X117.031 Y227.273 F1000
G1 X116.425 Y226.970 F1000
G1 X115.819 Y226.970 F1000
G1 X115.516 Y227.576 F1000
G1 X115.516 Y228.182 F1000
G1 X115.819 Y229.091 F1000
G1 X116.425 Y229.697 F1000
G1 X117.334 Y230.000 F1000
G1 X118.243 Y230.000 F1000
G1 X118.849 Y229.697 F1000
G1 X119.152 Y229.091 F1000
G1 X119.152 Y227.879 F1000
G1 X118.849 Y226.970 F1000
G1 X118.243 Y226.061 F1000
G1 X117.031 Y224.848 F1000
G1 X116.122 Y224.242 F1000
G1 X115.516 Y223.939 F1000
G1 X114.607 Y223.636 F1000
G1 X114.000 Y223.636 F1000
G1 X113.697 Y223.939 F1000
G1 X113.697 Y224.545 F1000
G1 X114.000 Y224.848 F1000
G1 X114.607 Y224.848 F1000
G1 X115.213 Y224.545 F1000
G1 X116.122 Y223.939 F1000
G1 X117.031 Y223.636 F1000
G1 X117.940 Y223.636 F1000
G1 X118.849 Y223.939 F1000
G1 X119.455 Y224.545 F1000
G0 Z7
G0 Z7
G0 X123.644 Y229.394
G1 Z2
G1 X123.947 Y229.091 F1000
G1 X123.947 Y228.182 F1000
G1 X123.644 Y226.970 F1000
G1 X123.341 Y226.061 F1000
G1 X123.038 Y225.455 F1000
G1 X122.432 Y224.545 F1000
G1 X121.826 Y223.939 F1000
G1 X121.220 Y223.636 F1000
G1 X120.917 Y223.636 F1000
G1 X120.614 Y223.939 F1000
G1 X120.614 Y224.848 F1000
G1 X120.917 Y226.364 F1000
G1 X121.220 Y227.273 F1000
G1 X121.523 Y227.879 F1000
G1 X122.129 Y228.788 F1000
G1 X122.735 Y229.394 F1000
G1 X123.341 Y229.697 F1000
G1 X124.250 Y230.000 F1000
G1 X125.463 Y230.000 F1000
G1 X126.069 Y229.697 F1000
G1 X126.372 Y229.394 F1000
G1 X126.675 Y228.788 F1000
G1 X126.675 Y227.879 F1000
G1 X126.372 Y227.273 F1000
G1 X126.069 Y226.970 F1000
G1 X125.463 Y226.667 F1000
G1 X124.553 Y226.667 F1000
G1 X123.644 Y226.970 F1000
G1 X123.947 Y226.667 F1000
G1 X124.250 Y226.061 F1000
G1 X124.250 Y224.545 F1000
G1 X124.553 Y223.939 F1000
G1 X125.160 Y223.636 F1000
G1 X125.766 Y223.939 F1000
G1 X126.069 Y224.242 F1000
G1 X126.675 Y225.152 F1000
G0 Z7
G0 Z7
G0 X126.925 Y223.636
G1 Z2
G1 X127.531 Y223.939 F1000
G1 X128.137 Y224.545 F1000
G1 X129.046 Y225.758 F1000
G1 X129.652 Y226.667 F1000
G1 X130.258 Y227.879 F1000
G1 X130.561 Y228.788 F1000
G1 X130.561 Y229.697 F1000
G1 X130.258 Y230.000 F1000
G1 X129.955 Y230.000 F1000
G1 X129.652 Y229.697 F1000
G1 X129.349 Y229.091 F1000
G1 X129.349 Y228.485 F1000
G1 X129.652 Y227.879 F1000
G1 X130.258 Y227.273 F1000
G1 X131.167 Y226.667 F1000
G1 X131.773 Y226.061 F1000
G1 X132.076 Y225.455 F1000
G1 X132.076 Y224.848 F1000
G1 X131.773 Y224.242 F1000
G1 X131.470 Y223.939 F1000
G1 X130.561 Y223.636 F1000
G1 X129.349 Y223.636 F1000
G1 X128.440 Y223.939 F1000
G1 X127.834 Y224.545 F1000
G1 X127.531 Y225.152 F1000
G1 X127.531 Y225.758 F1000
G0 Z7
G0 Z7
G0 X135.357 Y228.182
G1 Z2
G1 X134.750 Y228.182 F1000
G1 X134.144 Y228.485 F1000
G1 X133.841 Y229.091 F1000
G1 X134.144 Y229.697 F1000
G1 X135.053 Y230.000 F1000
G1 X135.963 Y230.000 F1000
G1 X137.175 Y229.697 F1000
G1 X138.084 Y229.697 F1000
G1 X138.690 Y230.000 F1000
G0 Z7
G0 X137.175 Y229.697
G1 Z2
G1 X136.569 Y227.576 F1000
G1 X135.963 Y225.758 F1000
G1 X135.357 Y224.545 F1000
G1 X134.750 Y223.939 F1000
G1 X134.144 Y223.636 F1000
G1 X133.538 Y223.636 F1000
G1 X132.932 Y223.939 F1000
G1 X132.629 Y224.545 F1000
G1 X132.629 Y225.152 F1000
G1 X132.932 Y225.455 F1000
G1 X133.538 Y225.455 F1000
G1 X134.144 Y225.152 F1000
G0 Z7
G0 Z7
G0 X140.455 Y227.879
G1 Z2
G1 X139.849 Y228.182 F1000
G1 X139.546 Y228.788 F1000
G1 X139.546 Y229.091 F1000
G1 X139.849 Y229.697 F1000
G1 X140.455 Y230.000 F1000
G1 X140.758 Y230.000 F1000
G1 X141.364 Y229.697 F1000
G1 X141.667 Y229.091 F1000
G1 X141.667 Y228.485 F1000
G1 X141.364 Y227.273 F1000
G1 X141.061 Y226.364 F1000
G1 X140.758 Y225.152 F1000
G1 X140.758 Y224.545 F1000
G1 X141.061 Y223.939 F1000
G1 X141.667 Y223.636 F1000
G1 X142.273 Y223.636 F1000
G1 X142.879 Y223.939 F1000
G1 X143.182 Y224.242 F1000
G1 X143.788 Y225.455 F1000
G1 X144.697 Y227.879 F1000
G1 X145.303 Y230.000 F1000
G0 Z7
G0 X144.697 Y227.879
G1 Z2
G1 X144.394 Y226.667 F1000
G1 X144.091 Y224.848 F1000
G1 X144.091 Y223.939 F1000
G1 X144.394 Y223.636 F1000
G1 X144.697 Y223.636 F1000
G1 X145.303 Y223.939 F1000
G1 X145.607 Y224.242 F1000
G1 X146.213 Y225.152 F1000
G0 Z7
G0 Z7
G0 X147.978 Y227.879
G1 Z2
G1 X147.372 Y228.182 F1000
G1 X147.069 Y228.788 F1000
G1 X147.069 Y229.091 F1000
G1 X147.372 Y229.697 F1000
G1 X147.978 Y230.000 F1000
G1 X148.281 Y230.000 F1000
G1 X148.887 Y229.697 F1000
G1 X149.190 Y229.091 F1000
G1 X149.190 Y228.485 F1000
G1 X148.887 Y227.273 F1000
G1 X148.584 Y226.364 F1000
G1 X148.281 Y225.152 F1000
G1 X148.281 Y224.242 F1000
G1 X148.584 Y223.636 F1000
G1 X149.190 Y223.636 F1000
G1 X149.796 Y223.939 F1000
G1 X150.705 Y224.848 F1000
G1 X151.311 Y225.758 F1000
G1 X151.917 Y226.970 F1000
G1 X152.220 Y227.879 F1000
G1 X152.523 Y229.091 F1000
G1 X152.523 Y229.697 F1000
G1 X152.220 Y230.000 F1000
G1 X151.917 Y230.000 F1000
G1 X151.614 Y229.697 F1000
G1 X151.311 Y229.091 F1000
G1 X151.311 Y228.485 F1000
G1 X151.614 Y227.576 F1000
G1 X152.220 Y226.970 F1000
G1 X152.826 Y226.667 F1000
G0 Z7
G0 Z7
G0 X154.591 Y227.879
G1 Z2
G1 X153.985 Y228.182 F1000
G1 X153.682 Y228.788 F1000
G1 X153.682 Y229.091 F1000
G1 X153.985 Y229.697 F1000
G1 X154.591 Y230.000 F1000
G1 X154.894 Y230.000 F1000
G1 X155.500 Y229.697 F1000
G1 X155.803 Y229.091 F1000
G1 X155.803 Y228.182 F1000
G1 X155.500 Y223.636 F1000
G0 Z7
G0 X158.531 Y230.000
G1 Z2
G1 X155.500 Y223.636 F1000
G0 Z7
G0 X158.531 Y230.000
G1 Z2
G1 X157.925 Y223.636 F1000
G0 Z7
G0 X162.167 Y230.000
G1 Z2
G1 X161.561 Y229.697 F1000
G1 X160.652 Y228.788 F1000
G1 X159.743 Y227.576 F1000
G1 X158.834 Y225.758 F1000
G1 X157.925 Y223.636 F1000
G0 Z7
G0 Z7
G0 X164.841 Y228.182
G1 Z2
G1 X164.235 Y228.182 F1000
G1 X163.932 Y228.485 F1000
G1 X163.932 Y229.091 F1000
G1 X164.235 Y229.697 F1000
G1 X164.841 Y230.000 F1000
G1 X165.447 Y230.000 F1000
G1 X166.053 Y229.697 F1000
G1 X166.357 Y229.091 F1000
G1 X166.357 Y228.182 F1000
G1 X165.750 Y225.455 F1000
G1 X165.750 Y224.545 F1000
G1 X166.053 Y223.939 F1000
G1 X166.660 Y223.636 F1000
G1 X167.266 Y223.636 F1000
G1 X167.872 Y223.939 F1000
G1 X168.175 Y224.545 F1000
G1 X168.175 Y225.152 F1000
G1 X167.872 Y225.455 F1000
G1 X167.266 Y225.455 F1000
G0 Z7
G0 X169.387 Y229.091
G1 Z2
G1 X169.387 Y229.697 F1000
G1 X169.084 Y230.000 F1000
G1 X168.478 Y230.000 F1000
G1 X167.872 Y229.697 F1000
G1 X167.266 Y229.091 F1000
G1 X166.660 Y228.182 F1000
G1 X165.447 Y225.455 F1000
G1 X164.841 Y224.545 F1000
G1 X164.235 Y223.939 F1000
G1 X163.629 Y223.636 F1000
G1 X163.023 Y223.636 F1000
G1 X162.720 Y223.939 F1000
G1 X162.720 Y224.545 F1000
G0 Z7
G0 Z7
G0 X171.152 Y227.879
G1 Z2
G1 X170.546 Y228.182 F1000
G1 X170.243 Y228.788 F1000
G1 X170.243 Y229.091 F1000
G1 X170.546 Y229.697 F1000
G1 X171.152 Y230.000 F1000
G1 X171.455 Y230.000 F1000
G1 X172.061 Y229.697 F1000
G1 X172.364 Y229.091 F1000
G1 X172.364 Y228.485 F1000
G1 X172.061 Y227.273 F1000
G1 X171.758 Y226.364 F1000
G1 X171.455 Y225.152 F1000
G1 X171.455 Y224.545 F1000
G1 X171.758 Y223.939 F1000
G1 X172.061 Y223.636 F1000
G1 X172.667 Y223.636 F1000
G1 X173.273 Y223.939 F1000
G1 X173.879 Y224.545 F1000
G1 X174.485 Y225.455 F1000
G1 X174.788 Y226.061 F1000
G1 X175.394 Y227.879 F1000
G0 Z7
G0 X176.000 Y230.000
G1 Z2
G1 X175.394 Y227.879 F1000
G1 X174.485 Y224.848 F1000
G1 X173.879 Y223.030 F1000
G1 X173.273 Y221.515 F1000
G1 X172.667 Y220.303 F1000
G1 X172.061 Y220.000 F1000
G1 X171.758 Y220.303 F1000
G1 X171.758 Y220.909 F1000
G1 X172.061 Y221.818 F1000
G1 X172.667 Y222.727 F1000
G1 X173.576 Y223.636 F1000
G1 X174.485 Y224.242 F1000
G1 X176.000 Y225.152 F1000
G0 Z7
G0 Z7
G0 X180.190 Y228.182
G1 Z2
G1 X179.887 Y227.576 F1000
G1 X179.584 Y227.273 F1000
G1 X178.978 Y226.970 F1000
G1 X178.372 Y226.970 F1000
G1 X178.069 Y227.576 F1000
G1 X178.069 Y228.182 F1000
G1 X178.372 Y229.091 F1000
G1 X178.978 Y229.697 F1000
G1 X179.887 Y230.000 F1000
G1 X180.796 Y230.000 F1000
G1 X181.402 Y229.697 F1000
G1 X181.705 Y229.091 F1000
G1 X181.705 Y227.879 F1000
G1 X181.402 Y226.970 F1000
G1 X180.796 Y225.758 F1000
G1 X179.887 Y224.848 F1000
G1 X178.675 Y223.939 F1000
G1 X178.069 Y223.636 F1000
G1 X177.160 Y223.636 F1000
G1 X176.857 Y223.939 F1000
G1 X176.857 Y224.545 F1000
G1 X177.160 Y224.848 F1000
G1 X178.069 Y224.848 F1000
G1 X178.675 Y224.545 F1000
G1 X178.978 Y224.242 F1000
G1 X179.281 Y223.636 F1000
G1 X179.281 Y222.727 F1000
G1 X178.978 Y221.818 F1000
G1 X178.675 Y221.212 F1000
G1 X178.069 Y220.303 F1000
G1 X177.463 Y220.000 F1000
G1 X177.160 Y220.303 F1000
G1 X177.160 Y220.909 F1000
G1 X177.463 Y221.818 F1000
G1 X178.069 Y222.727 F1000
G1 X178.978 Y223.636 F1000
G1 X179.887 Y224.242 F1000
G1 X181.705 Y225.152 F1000
G0 Z7
G0 Z7
G0 X183.167 Y230.000
G1 Z2
G1 X183.167 Y227.879 F1000
G0 Z7
G0 X185.591 Y230.000
G1 Z2
G1 X185.591 Y227.879 F1000
G0 Z7
G0 Z7
G0 X13.333 Y218.212
G1 Z2
G1 X11.212 Y208.515 F1000
G0 Z7
G0 X15.152 Y218.212
G1 Z2
G1 X13.030 Y208.515 F1000
G0 Z7
G0 X11.212 Y214.273
G1 Z2
G1 X15.455 Y214.273 F1000
G0 Z7
G0 X10.909 Y212.455
G1 Z2
G1 X15.152 Y212.455 F1000
G0 Z7
G0 Z7
G0 X18.667 Y213.364
G1 Z2
G1 X19.273 Y213.364 F1000
G1 X20.485 Y213.667 F1000
G1 X21.394 Y214.273 F1000
G1 X22.000 Y214.879 F1000
G1 X22.303 Y215.485 F1000
G1 X22.303 Y216.394 F1000
G1 X22.000 Y217.000 F1000
G1 X21.394 Y217.000 F1000
G1 X21.091 Y216.697 F1000
G1 X20.788 Y216.091 F1000
G1 X20.485 Y214.576 F1000
G1 X20.182 Y213.061 F1000
G1 X19.879 Y212.152 F1000
G1 X19.576 Y211.545 F1000
G1 X18.970 Y210.939 F1000
G1 X18.364 Y210.636 F1000
G1 X17.758 Y210.636 F1000
G1 X17.455 Y210.939 F1000
G1 X17.455 Y211.545 F1000
G1 X17.758 Y211.848 F1000
G1 X18.364 Y211.848 F1000
G1 X18.970 Y211.545 F1000
G1 X19.879 Y210.939 F1000
G1 X20.788 Y210.636 F1000
G1 X21.394 Y210.636 F1000
G1 X22.303 Y210.939 F1000
G1 X22.909 Y211.545 F1000
G0 Z7
G0 Z7
G0 X24.977 Y213.364
G1 Z2
G1 X24.371 Y213.364 F1000
G1 X23.765 Y213.061 F1000
G1 X23.462 Y212.758 F1000
G1 X23.159 Y212.152 F1000
G1 X23.159 Y211.545 F1000
G1 X23.462 Y210.939 F1000
G1 X24.068 Y210.636 F1000
G1 X24.674 Y210.636 F1000
G1 X25.280 Y210.939 F1000
G1 X25.583 Y211.242 F1000
G1 X25.886 Y211.848 F1000
G1 X25.886 Y212.455 F1000
G1 X25.583 Y213.061 F1000
G1 X24.977 Y213.364 F1000
G1 X24.674 Y213.061 F1000
G1 X24.674 Y212.455 F1000
G1 X24.977 Y211.848 F1000
G1 X25.583 Y211.545 F1000
G1 X26.492 Y211.545 F1000
G1 X27.098 Y211.848 F1000
G1 X27.402 Y212.152 F1000
G0 Z7
G0 Z7
G0 X28.561 Y213.364
G1 Z2
G1 X27.955 Y212.758 F1000
G1 X27.652 Y211.848 F1000
G1 X27.652 Y211.242 F1000
G1 X27.955 Y210.636 F1000
G1 X28.561 Y210.636 F1000
G1 X29.167 Y210.939 F1000
G1 X29.773 Y211.545 F1000
G0 Z7
G0 X30.379 Y213.364
G1 Z2
G1 X29.773 Y211.545 F1000
G1 X29.773 Y210.939 F1000
G1 X30.076 Y210.636 F1000
G1 X30.682 Y210.636 F1000
G1 X31.288 Y210.939 F1000
G1 X31.894 Y211.545 F1000
G1 X32.197 Y212.455 F1000
G1 X32.197 Y213.364 F1000
G1 X32.500 Y212.152 F1000
G1 X32.803 Y211.848 F1000
G1 X33.409 Y211.848 F1000
G1 X34.015 Y212.152 F1000
G0 Z7
G0 Z7
G0 X34.568 Y211.242
G1 Z2
G1 X35.174 Y211.545 F1000
G1 X35.477 Y211.848 F1000
G1 X35.780 Y212.455 F1000
G1 X35.780 Y213.061 F1000
G1 X35.477 Y213.364 F1000
G1 X35.174 Y213.364 F1000
G1 X34.568 Y213.061 F1000
G1 X34.265 Y212.455 F1000
G1 X34.265 Y211.545 F1000
G1 X34.568 Y210.939 F1000
G1 X35.174 Y210.636 F1000
G1 X35.780 Y210.636 F1000
G1 X36.386 Y210.939 F1000
G1 X36.689 Y211.242 F1000
G1 X37.295 Y212.152 F1000
G0 Z7
G0 Z7
G0 X37.545 Y212.152
G1 Z2
G1 X38.152 Y213.061 F1000
G1 X38.455 Y213.667 F1000
G1 X38.455 Y213.061 F1000
G1 X39.364 Y213.061 F1000
G1 X39.667 Y212.758 F1000
G1 X39.667 Y212.152 F1000
G1 X39.364 Y211.242 F1000
G1 X39.364 Y210.939 F1000
G1 X39.667 Y210.636 F1000
G1 X39.970 Y210.636 F1000
G1 X40.576 Y210.939 F1000
G1 X40.879 Y211.242 F1000
G1 X41.485 Y212.152 F1000
G0 Z7
G0 Z7
G0 X43.856 Y212.758
G1 Z2
G1 X43.856 Y213.061 F1000
G1 X43.553 Y213.364 F1000
G1 X42.947 Y213.364 F1000
G1 X42.341 Y213.061 F1000
G1 X42.038 Y212.758 F1000
G1 X41.735 Y212.152 F1000
G1 X41.735 Y211.545 F1000
G1 X42.038 Y210.939 F1000
G1 X42.644 Y210.636 F1000
G1 X43.553 Y210.636 F1000
G1 X44.462 Y211.242 F1000
G1 X45.068 Y212.152 F1000
G0 Z7
G0 Z7
G0 X48.045 Y212.455
G1 Z2
G1 X47.742 Y213.061 F1000
G1 X47.136 Y213.364 F1000
G1 X46.530 Y213.364 F1000
G1 X45.924 Y213.061 F1000
G1 X45.621 Y212.758 F1000
G1 X45.318 Y212.152 F1000
G1 X45.318 Y211.545 F1000
G1 X45.621 Y210.939 F1000
G1 X46.227 Y210.636 F1000
G1 X46.833 Y210.636 F1000
G1 X47.439 Y210.939 F1000
G1 X47.742 Y211.545 F1000
G1 X48.348 Y213.364 F1000
G1 X48.045 Y211.848 F1000
G1 X48.045 Y210.939 F1000
G1 X48.348 Y210.636 F1000
G1 X48.652 Y210.636 F1000
G1 X49.258 Y210.939 F1000
G1 X49.561 Y211.242 F1000
G1 X50.167 Y212.152 F1000
G0 Z7
G0 Z7
G0 X50.417 Y212.152
G1 Z2
G1 X51.023 Y213.061 F1000
G1 X51.326 Y213.667 F1000
G1 X51.326 Y213.061 F1000
G1 X51.932 Y212.152 F1000
G1 X52.235 Y211.545 F1000
G1 X52.235 Y210.939 F1000
G1 X51.629 Y210.636 F1000
G0 Z7
G0 X50.417 Y210.939
G1 Z2
G1 X51.023 Y210.636 F1000
G1 X52.235 Y210.636 F1000
G1 X52.841 Y210.939 F1000
G1 X53.144 Y211.242 F1000
G1 X53.750 Y212.152 F1000
G0 Z7
G0 Z7
G0 X54.303 Y211.242
G1 Z2
G1 X54.909 Y211.545 F1000
G1 X55.212 Y211.848 F1000
G1 X55.515 Y212.455 F1000
G1 X55.515 Y213.061 F1000
G1 X55.212 Y213.364 F1000
G1 X54.909 Y213.364 F1000
G1 X54.303 Y213.061 F1000
G1 X54.000 Y212.455 F1000
G1 X54.000 Y211.545 F1000
G1 X54.303 Y210.939 F1000
G1 X54.909 Y210.636 F1000
G1 X55.515 Y210.636 F1000
G1 X56.121 Y210.939 F1000
G1 X56.424 Y211.242 F1000
G1 X57.030 Y212.152 F1000
G0 Z7
G0 Z7
G0 X11.212 Y204.000
G1 Z2
G1 X11.212 Y201.879 F1000
G0 Z7
G0 X13.636 Y204.000
G1 Z2
G1 X13.636 Y201.879 F1000
G0 Z7
G0 Z7
G0 X16.614 Y199.455
G1 Z2
G1 X16.311 Y200.061 F1000
G1 X15.705 Y200.364 F1000
G1 X15.098 Y200.364 F1000
G1 X14.492 Y200.061 F1000
G1 X14.189 Y199.758 F1000
G1 X13.886 Y199.152 F1000
G1 X13.886 Y198.545 F1000
G1 X14.189 Y197.939 F1000
G1 X14.795 Y197.636 F1000
G1 X15.402 Y197.636 F1000
G1 X16.008 Y197.939 F1000
G1 X16.311 Y198.545 F1000
G1 X16.917 Y200.364 F1000
G1 X16.614 Y198.848 F1000
G1 X16.614 Y197.939 F1000
G1 X16.917 Y197.636 F1000
G1 X17.220 Y197.636 F1000
G1 X17.826 Y197.939 F1000
G1 X18.129 Y198.242 F1000
G1 X18.735 Y199.152 F1000
G0 Z7
G0 Z7
G0 X18.985 Y199.152
G1 Z2
G1 X19.591 Y200.061 F1000
G1 X20.500 Y201.576 F1000
G1 X20.803 Y202.182 F1000
G1 X21.106 Y203.091 F1000
G1 X21.106 Y203.697 F1000
G1 X20.803 Y204.000 F1000
G1 X20.197 Y203.697 F1000
G1 X19.894 Y203.091 F1000
G1 X19.591 Y201.879 F1000
G1 X19.288 Y199.758 F1000
G1 X19.288 Y197.939 F1000
G1 X19.591 Y197.636 F1000
G1 X19.894 Y197.636 F1000
G1 X20.500 Y197.939 F1000
G1 X21.106 Y198.545 F1000
G1 X21.409 Y199.455 F1000
G1 X21.409 Y200.364 F1000
G1 X21.712 Y199.152 F1000
G1 X22.015 Y198.848 F1000
G1 X22.621 Y198.848 F1000
G1 X23.227 Y199.152 F1000
G0 Z7
G0 Z7
G0 X25.598 Y199.758
G1 Z2
G1 X25.598 Y200.061 F1000
G1 X25.295 Y200.364 F1000
G1 X24.689 Y200.364 F1000
G1 X24.083 Y200.061 F1000
G1 X23.780 Y199.758 F1000
G1 X23.477 Y199.152 F1000
G1 X23.477 Y198.545 F1000
G1 X23.780 Y197.939 F1000
G1 X24.386 Y197.636 F1000
G1 X25.295 Y197.636 F1000
G1 X26.205 Y198.242 F1000
G1 X26.811 Y199.152 F1000
G0 Z7
G0 Z7
G0 X29.788 Y199.455
G1 Z2
G1 X29.485 Y200.061 F1000
G1 X28.879 Y200.364 F1000
G1 X28.273 Y200.364 F1000
G1 X27.667 Y200.061 F1000
G1 X27.364 Y199.758 F1000
G1 X27.061 Y199.152 F1000
G1 X27.061 Y198.545 F1000
G1 X27.364 Y197.939 F1000
G1 X27.970 Y197.636 F1000
G1 X28.576 Y197.636 F1000
G1 X29.182 Y197.939 F1000
G1 X29.485 Y198.545 F1000
G1 X31.303 Y204.000 F1000
G0 Z7
G0 X30.091 Y200.364
G1 Z2
G1 X29.788 Y198.848 F1000
G1 X29.788 Y197.939 F1000
G1 X30.091 Y197.636 F1000
G1 X30.394 Y197.636 F1000
G1 X31.000 Y197.939 F1000
G1 X31.303 Y198.242 F1000
G1 X31.909 Y199.152 F1000
G0 Z7
G0 Z7
G0 X32.462 Y198.242
G1 Z2
G1 X33.068 Y198.545 F1000
G1 X33.371 Y198.848 F1000
G1 X33.674 Y199.455 F1000
G1 X33.674 Y200.061 F1000
G1 X33.371 Y200.364 F1000
G1 X33.068 Y200.364 F1000
G1 X32.462 Y200.061 F1000
G1 X32.159 Y199.455 F1000
G1 X32.159 Y198.545 F1000
G1 X32.462 Y197.939 F1000
G1 X33.068 Y197.636 F1000
G1 X33.674 Y197.636 F1000
G1 X34.280 Y197.939 F1000
G1 X34.583 Y198.242 F1000
G1 X35.189 Y199.152 F1000
G0 Z7
G0 Z7
G0 X35.439 Y199.152
G1 Z2
G1 X36.652 Y200.667 F1000
G1 X37.258 Y201.576 F1000
G1 X37.561 Y202.182 F1000
G1 X37.864 Y203.091 F1000
G1 X37.864 Y203.697 F1000
G1 X37.561 Y204.000 F1000
G1 X36.955 Y203.697 F1000
G1 X36.652 Y203.091 F1000
G1 X36.045 Y200.667 F1000
G1 X35.136 Y197.939 F1000
G1 X34.227 Y195.818 F1000
G1 X33.924 Y194.909 F1000
G1 X33.924 Y194.303 F1000
G1 X34.227 Y194.000 F1000
G1 X34.833 Y194.303 F1000
G1 X35.136 Y195.212 F1000
G1 X35.439 Y197.939 F1000
G1 X35.742 Y197.636 F1000
G1 X36.348 Y197.636 F1000
G1 X36.955 Y197.939 F1000
G1 X37.258 Y198.242 F1000
G1 X37.864 Y199.152 F1000
G0 Z7
G0 Z7
G0 X40.841 Y199.455
G1 Z2
G1 X40.538 Y200.061 F1000
G1 X39.932 Y200.364 F1000
G1 X39.326 Y200.364 F1000
G1 X38.720 Y200.061 F1000
G1 X38.417 Y199.758 F1000
G1 X38.114 Y199.152 F1000
G1 X38.114 Y198.545 F1000
G1 X38.417 Y197.939 F1000
G1 X39.023 Y197.636 F1000
G1 X39.629 Y197.636 F1000
G1 X40.235 Y197.939 F1000
G1 X40.538 Y198.242 F1000
G0 Z7
G0 X41.144 Y200.364
G1 Z2
G1 X40.538 Y198.242 F1000
G1 X39.326 Y194.909 F1000
G1 X39.023 Y194.303 F1000
G1 X38.417 Y194.000 F1000
G1 X38.114 Y194.303 F1000
G1 X38.114 Y194.909 F1000
G1 X38.417 Y195.818 F1000
G1 X39.326 Y196.727 F1000
G1 X40.235 Y197.333 F1000
G1 X40.841 Y197.636 F1000
G1 X41.750 Y198.242 F1000
G1 X42.659 Y199.152 F1000
G0 Z7
G0 Z7
G0 X42.909 Y199.152
G1 Z2
G1 X43.515 Y200.061 F1000
G1 X44.424 Y201.576 F1000
G1 X44.727 Y202.182 F1000
G1 X45.030 Y203.091 F1000
G1 X45.030 Y203.697 F1000
G1 X44.727 Y204.000 F1000
G1 X44.121 Y203.697 F1000
G1 X43.818 Y203.091 F1000
G1 X43.515 Y201.879 F1000
G1 X43.212 Y200.061 F1000
G1 X42.909 Y197.636 F1000
G1 X43.212 Y198.545 F1000
G1 X43.515 Y199.152 F1000
G1 X44.121 Y200.061 F1000
G1 X44.727 Y200.364 F1000
G1 X45.333 Y200.364 F1000
G1 X45.636 Y200.061 F1000
G1 X45.636 Y199.455 F1000
G1 X45.333 Y198.545 F1000
G1 X45.333 Y197.939 F1000
G1 X45.636 Y197.636 F1000
G1 X45.939 Y197.636 F1000
G1 X46.545 Y197.939 F1000
G1 X46.848 Y198.242 F1000
G1 X47.455 Y199.152 F1000
G0 Z7
G0 Z7
G0 X48.614 Y201.879
G1 Z2
G1 X48.614 Y201.576 F1000
G1 X48.917 Y201.576 F1000
G1 X48.917 Y201.879 F1000
G1 X48.614 Y201.879 F1000
G0 Z7
G0 X47.705 Y199.152
G1 Z2
G1 X48.311 Y200.364 F1000
G1 X47.705 Y198.545 F1000
G1 X47.705 Y197.939 F1000
G1 X48.008 Y197.636 F1000
G1 X48.311 Y197.636 F1000
G1 X48.917 Y197.939 F1000
G1 X49.220 Y198.242 F1000
G1 X49.826 Y199.152 F1000
G0 Z7
G0 Z7
G0 X50.985 Y201.879
G1 Z2
G1 X50.985 Y201.576 F1000
G1 X51.288 Y201.576 F1000
G1 X51.288 Y201.879 F1000
G1 X50.985 Y201.879 F1000
G0 Z7
G0 X50.076 Y199.152
G1 Z2
G1 X50.682 Y200.364 F1000
G1 X48.864 Y194.909 F1000
G1 X48.561 Y194.303 F1000
G1 X47.955 Y194.000 F1000
G1 X47.652 Y194.303 F1000
G1 X47.652 Y194.909 F1000
G1 X47.955 Y195.818 F1000
G1 X48.864 Y196.727 F1000
G1 X49.773 Y197.333 F1000
G1 X50.379 Y197.636 F1000
G1 X51.288 Y198.242 F1000
G1 X52.197 Y199.152 F1000
G0 Z7
G0 Z7
G0 X52.447 Y199.152
G1 Z2
G1 X53.053 Y200.061 F1000
G1 X53.962 Y201.576 F1000
G1 X54.265 Y202.182 F1000
G1 X54.568 Y203.091 F1000
G1 X54.568 Y203.697 F1000
G1 X54.265 Y204.000 F1000
G1 X53.659 Y203.697 F1000
G1 X53.356 Y203.091 F1000
G1 X53.053 Y201.879 F1000
G1 X52.750 Y200.061 F1000
G1 X52.447 Y197.636 F1000
G1 X52.750 Y198.545 F1000
G1 X53.053 Y199.152 F1000
G1 X53.659 Y200.061 F1000
G1 X54.265 Y200.364 F1000
G1 X54.871 Y200.364 F1000
G1 X55.174 Y200.061 F1000
G1 X55.174 Y199.455 F1000
G1 X54.568 Y199.152 F1000
G1 X53.659 Y199.152 F1000
G1 X54.265 Y198.848 F1000
G1 X54.568 Y197.939 F1000
G1 X54.871 Y197.636 F1000
G1 X55.174 Y197.636 F1000
G1 X55.780 Y197.939 F1000
G1 X56.083 Y198.242 F1000
G1 X56.689 Y199.152 F1000
G0 Z7
G0 Z7
G0 X56.939 Y199.152
G1 Z2
G1 X57.545 Y200.061 F1000
G1 X58.455 Y201.576 F1000
G1 X58.758 Y202.182 F1000
G1 X59.061 Y203.091 F1000
G1 X59.061 Y203.697 F1000
G1 X58.758 Y204.000 F1000
G1 X58.152 Y203.697 F1000
G1 X57.848 Y203.091 F1000
G1 X57.545 Y201.879 F1000
G1 X57.242 Y199.758 F1000
G1 X57.242 Y197.939 F1000
G1 X57.545 Y197.636 F1000
G1 X57.848 Y197.636 F1000
G1 X58.455 Y197.939 F1000
G1 X58.758 Y198.242 F1000
G1 X59.364 Y199.152 F1000
G0 Z7
G0 Z7
G0 X59.614 Y199.152
G1 Z2
G1 X60.220 Y200.061 F1000
G1 X60.826 Y200.364 F1000
G1 X61.129 Y200.061 F1000
G1 X61.129 Y199.758 F1000
G1 X60.826 Y198.545 F1000
G1 X60.523 Y197.636 F1000
G0 Z7
G0 X60.826 Y198.545
G1 Z2
G1 X61.129 Y199.152 F1000
G1 X61.735 Y200.061 F1000
G1 X62.341 Y200.364 F1000
G1 X62.947 Y200.364 F1000
G1 X63.250 Y200.061 F1000
G1 X63.250 Y199.758 F1000
G1 X62.947 Y198.545 F1000
G1 X62.644 Y197.636 F1000
G0 Z7
G0 X62.947 Y198.545
G1 Z2
G1 X63.250 Y199.152 F1000
G1 X63.856 Y200.061 F1000
G1 X64.462 Y200.364 F1000
G1 X65.068 Y200.364 F1000
G1 X65.371 Y200.061 F1000
G1 X65.371 Y199.455 F1000
G1 X65.068 Y198.545 F1000
G1 X65.068 Y197.939 F1000
G1 X65.371 Y197.636 F1000
G1 X65.674 Y197.636 F1000
G1 X66.280 Y197.939 F1000
G1 X66.583 Y198.242 F1000
G1 X67.189 Y199.152 F1000
G0 Z7
G0 Z7
G0 X67.439 Y199.152
G1 Z2
G1 X68.045 Y200.061 F1000
G1 X68.652 Y200.364 F1000
G1 X68.955 Y200.061 F1000
G1 X68.955 Y199.758 F1000
G1 X68.652 Y198.545 F1000
G1 X68.348 Y197.636 F1000
G0 Z7
G0 X68.652 Y198.545
G1 Z2
G1 X68.955 Y199.152 F1000
G1 X69.561 Y200.061 F1000
G1 X70.167 Y200.364 F1000
G1 X70.773 Y200.364 F1000
G1 X71.076 Y200.061 F1000
G1 X71.076 Y199.455 F1000
G1 X70.773 Y198.545 F1000
G1 X70.773 Y197.939 F1000
G1 X71.076 Y197.636 F1000
G1 X71.379 Y197.636 F1000
G1 X71.985 Y197.939 F1000
G1 X72.288 Y198.242 F1000
G1 X72.894 Y199.152 F1000
G0 Z7
G0 Z7
G0 X74.962 Y200.364
G1 Z2
G1 X74.356 Y200.364 F1000
G1 X73.750 Y200.061 F1000
G1 X73.447 Y199.758 F1000
G1 X73.144 Y199.152 F1000
G1 X73.144 Y198.545 F1000
G1 X73.447 Y197.939 F1000
G1 X74.053 Y197.636 F1000
G1 X74.659 Y197.636 F1000
G1 X75.265 Y197.939 F1000
G1 X75.568 Y198.242 F1000
G1 X75.871 Y198.848 F1000
G1 X75.871 Y199.455 F1000
G1 X75.568 Y200.061 F1000
G1 X74.962 Y200.364 F1000
G1 X74.659 Y200.061 F1000
G1 X74.659 Y199.455 F1000
G1 X74.962 Y198.848 F1000
G1 X75.568 Y198.545 F1000
G1 X76.477 Y198.545 F1000
G1 X77.083 Y198.848 F1000
G1 X77.386 Y199.152 F1000
G0 Z7
G0 Z7
G0 X77.636 Y199.152
G1 Z2
G1 X78.242 Y200.061 F1000
G1 X78.545 Y200.667 F1000
G1 X78.242 Y199.455 F1000
G1 X76.424 Y194.000 F1000
G0 Z7
G0 X78.242 Y199.455
G1 Z2
G1 X78.545 Y200.061 F1000
G1 X79.152 Y200.364 F1000
G1 X79.758 Y200.364 F1000
G1 X80.364 Y200.061 F1000
G1 X80.667 Y199.455 F1000
G1 X80.667 Y198.848 F1000
G1 X80.364 Y198.242 F1000
G1 X80.061 Y197.939 F1000
G1 X79.455 Y197.636 F1000
G0 Z7
G0 X78.242 Y197.939
G1 Z2
G1 X78.848 Y197.636 F1000
G1 X79.758 Y197.636 F1000
G1 X80.667 Y197.939 F1000
G1 X81.273 Y198.242 F1000
G1 X82.182 Y199.152 F1000
G0 Z7
G0 Z7
G0 X85.159 Y199.455
G1 Z2
G1 X84.856 Y200.061 F1000
G1 X84.250 Y200.364 F1000
G1 X83.644 Y200.364 F1000
G1 X83.038 Y200.061 F1000
G1 X82.735 Y199.758 F1000
G1 X82.432 Y199.152 F1000
G1 X82.432 Y198.545 F1000
G1 X82.735 Y197.939 F1000
G1 X83.341 Y197.636 F1000
G1 X83.947 Y197.636 F1000
G1 X84.553 Y197.939 F1000
G0 Z7
G0 X85.462 Y200.364
G1 Z2
G1 X85.159 Y199.455 F1000
G1 X84.553 Y197.939 F1000
G1 X83.644 Y195.818 F1000
G1 X83.341 Y194.909 F1000
G1 X83.341 Y194.303 F1000
G1 X83.644 Y194.000 F1000
G1 X84.250 Y194.303 F1000
G1 X84.553 Y195.212 F1000
G1 X84.553 Y197.333 F1000
G1 X85.159 Y197.636 F1000
G1 X86.068 Y198.242 F1000
G1 X86.977 Y199.152 F1000
G0 Z7
G0 Z7
G0 X87.227 Y199.152
G1 Z2
G1 X87.833 Y200.061 F1000
G1 X88.136 Y200.667 F1000
G1 X88.136 Y200.061 F1000
G1 X89.045 Y200.061 F1000
G1 X89.348 Y199.758 F1000
G1 X89.348 Y199.152 F1000
G1 X89.045 Y198.242 F1000
G1 X89.045 Y197.939 F1000
G1 X89.348 Y197.636 F1000
G1 X89.652 Y197.636 F1000
G1 X90.258 Y197.939 F1000
G1 X90.561 Y198.242 F1000
G1 X91.167 Y199.152 F1000
G0 Z7
G0 Z7
G0 X91.417 Y199.152
G1 Z2
G1 X92.023 Y200.061 F1000
G1 X92.326 Y200.667 F1000
G1 X92.326 Y200.061 F1000
G1 X92.932 Y199.152 F1000
G1 X93.235 Y198.545 F1000
G1 X93.235 Y197.939 F1000
G1 X92.629 Y197.636 F1000
G0 Z7
G0 X91.417 Y197.939
G1 Z2
G1 X92.023 Y197.636 F1000
G1 X93.235 Y197.636 F1000
G1 X93.841 Y197.939 F1000
G1 X94.144 Y198.242 F1000
G1 X94.750 Y199.152 F1000
G0 Z7
G0 Z7
G0 X95.000 Y199.152
G1 Z2
G1 X95.606 Y200.061 F1000
G1 X96.212 Y201.273 F1000
G0 Z7
G0 X97.121 Y204.000
G1 Z2
G1 X95.303 Y198.545 F1000
G1 X95.303 Y197.939 F1000
G1 X95.606 Y197.636 F1000
G1 X96.212 Y197.636 F1000
G1 X96.818 Y197.939 F1000
G1 X97.121 Y198.242 F1000
G1 X97.727 Y199.152 F1000
G0 Z7
G0 X95.303 Y201.576
G1 Z2
G1 X97.424 Y201.576 F1000
G0 Z7
G0 Z7
G0 X97.977 Y199.152
G1 Z2
G1 X98.583 Y200.364 F1000
G1 X97.977 Y198.545 F1000
G1 X97.977 Y197.939 F1000
G1 X98.280 Y197.636 F1000
G1 X98.886 Y197.636 F1000
G1 X99.492 Y197.939 F1000
G1 X100.098 Y198.545 F1000
G1 X100.705 Y199.455 F1000
G0 Z7
G0 X101.008 Y200.364
G1 Z2
G1 X100.402 Y198.545 F1000
G1 X100.402 Y197.939 F1000
G1 X100.705 Y197.636 F1000
G1 X101.008 Y197.636 F1000
G1 X101.614 Y197.939 F1000
G1 X101.917 Y198.242 F1000
G1 X102.523 Y199.152 F1000
G0 Z7
G0 Z7
G0 X102.773 Y199.152
G1 Z2
G1 X103.379 Y200.364 F1000
G1 X103.076 Y198.848 F1000
G1 X103.076 Y197.939 F1000
G1 X103.379 Y197.636 F1000
G1 X103.682 Y197.636 F1000
G1 X104.591 Y197.939 F1000
G1 X105.197 Y198.545 F1000
G1 X105.500 Y199.455 F1000
G1 X105.500 Y200.364 F1000
G1 X105.803 Y199.152 F1000
G1 X106.106 Y198.848 F1000
G1 X106.712 Y198.848 F1000
G1 X107.318 Y199.152 F1000
G0 Z7
G0 Z7
G0 X108.477 Y200.364
G1 Z2
G1 X107.871 Y199.758 F1000
G1 X107.568 Y198.848 F1000
G1 X107.568 Y198.242 F1000
G1 X107.871 Y197.636 F1000
G1 X108.477 Y197.636 F1000
G1 X109.083 Y197.939 F1000
G1 X109.689 Y198.545 F1000
G0 Z7
G0 X110.295 Y200.364
G1 Z2
G1 X109.689 Y198.545 F1000
G1 X109.689 Y197.939 F1000
G1 X109.992 Y197.636 F1000
G1 X110.598 Y197.636 F1000
G1 X111.205 Y197.939 F1000
G1 X111.811 Y198.545 F1000
G1 X112.114 Y199.455 F1000
G1 X112.114 Y200.364 F1000
G1 X112.417 Y199.152 F1000
G1 X112.720 Y198.848 F1000
G1 X113.326 Y198.848 F1000
G1 X113.932 Y199.152 F1000
G0 Z7
G0 Z7
G0 X114.182 Y199.152
G1 Z2
G1 X114.788 Y200.061 F1000
G1 X115.394 Y200.364 F1000
G1 X116.000 Y200.364 F1000
G1 X116.303 Y200.061 F1000
G1 X116.303 Y197.939 F1000
G1 X116.606 Y197.636 F1000
G1 X117.515 Y197.636 F1000
G1 X118.424 Y198.242 F1000
G1 X119.030 Y199.152 F1000
G0 Z7
G0 X118.121 Y200.061
G1 Z2
G1 X117.818 Y200.364 F1000
G1 X117.212 Y200.364 F1000
G1 X116.909 Y200.061 F1000
G1 X115.697 Y197.939 F1000
G1 X115.394 Y197.636 F1000
G1 X114.788 Y197.636 F1000
G1 X114.485 Y197.939 F1000
G0 Z7
G0 Z7
G0 X119.280 Y199.152
G1 Z2
G1 X119.886 Y200.364 F1000
G1 X119.280 Y198.545 F1000
G1 X119.280 Y197.939 F1000
G1 X119.583 Y197.636 F1000
G1 X120.189 Y197.636 F1000
G1 X120.795 Y197.939 F1000
G1 X121.402 Y198.545 F1000
G1 X122.008 Y199.455 F1000
G0 Z7
G0 X122.311 Y200.364
G1 Z2
G1 X120.492 Y194.909 F1000
G1 X120.189 Y194.303 F1000
G1 X119.583 Y194.000 F1000
G1 X119.280 Y194.303 F1000
G1 X119.280 Y194.909 F1000
G1 X119.583 Y195.818 F1000
G1 X120.492 Y196.727 F1000
G1 X121.402 Y197.333 F1000
G1 X122.008 Y197.636 F1000
G1 X122.917 Y198.242 F1000
G1 X123.826 Y199.152 F1000
G0 Z7
G0 Z7
G0 X124.076 Y199.152
G1 Z2
G1 X124.682 Y200.061 F1000
G1 X125.288 Y200.364 F1000
G1 X125.894 Y200.364 F1000
G1 X126.500 Y199.758 F1000
G1 X126.500 Y199.152 F1000
G1 X126.197 Y198.545 F1000
G1 X125.591 Y197.939 F1000
G1 X124.682 Y197.636 F1000
G1 X125.288 Y197.333 F1000
G1 X125.591 Y196.727 F1000
G1 X125.591 Y195.818 F1000
G1 X125.288 Y194.909 F1000
G1 X124.985 Y194.303 F1000
G1 X124.379 Y194.000 F1000
G1 X124.076 Y194.303 F1000
G1 X124.076 Y194.909 F1000
G1 X124.379 Y195.818 F1000
G1 X125.288 Y196.727 F1000
G1 X126.197 Y197.333 F1000
G1 X127.409 Y198.242 F1000
G1 X128.318 Y199.152 F1000
G0 Z7
G0 Z7
G0 X129.780 Y204.000
G1 Z2
G1 X129.780 Y201.879 F1000
G0 Z7
G0 X132.205 Y204.000
G1 Z2
G1 X132.205 Y201.879 F1000
G0 Z7
G0 Z7
G0 X13.333 Y192.212
G1 Z2
G1 X11.212 Y182.515 F1000
G0 Z7
G0 X15.152 Y192.212
G1 Z2
G1 X13.030 Y182.515 F1000
G0 Z7
G0 X11.212 Y188.273
G1 Z2
G1 X15.455 Y188.273 F1000
G0 Z7
G0 X10.909 Y186.455
G1 Z2
G1 X15.152 Y186.455 F1000
G0 Z7
G0 Z7
G0 X20.485 Y189.182
G1 Z2
G1 X19.879 Y189.182 F1000
G1 X19.273 Y189.485 F1000
G1 X18.970 Y190.091 F1000
G1 X19.273 Y190.697 F1000
G1 X20.182 Y191.000 F1000
G1 X21.091 Y191.000 F1000
G1 X22.303 Y190.697 F1000
G1 X23.212 Y190.697 F1000
G1 X23.818 Y191.000 F1000
G0 Z7
G0 X22.303 Y190.697
G1 Z2
G1 X21.697 Y188.576 F1000
G1 X21.091 Y186.758 F1000
G1 X20.485 Y185.545 F1000
G1 X19.879 Y184.939 F1000
G1 X19.273 Y184.636 F1000
G1 X18.667 Y184.636 F1000
G1 X18.061 Y184.939 F1000
G1 X17.758 Y185.545 F1000
G1 X17.758 Y186.152 F1000
G1 X18.061 Y186.455 F1000
G1 X18.667 Y186.455 F1000
G1 X19.273 Y186.152 F1000
G0 Z7
G0 Z7
G0 X24.068 Y186.152
G1 Z2
G1 X24.674 Y187.364 F1000
G1 X24.068 Y185.545 F1000
G1 X24.068 Y184.939 F1000
G1 X24.371 Y184.636 F1000
G1 X24.977 Y184.636 F1000
G1 X25.583 Y184.939 F1000
G1 X26.189 Y185.545 F1000
G1 X26.795 Y186.455 F1000
G0 Z7
G0 X27.098 Y187.364
G1 Z2
G1 X26.492 Y185.545 F1000
G1 X26.492 Y184.939 F1000
G1 X26.795 Y184.636 F1000
G1 X27.098 Y184.636 F1000
G1 X27.705 Y184.939 F1000
G1 X28.008 Y185.242 F1000
G1 X28.614 Y186.152 F1000
G0 Z7
G0 Z7
G0 X28.864 Y186.152
G1 Z2
G1 X29.470 Y187.061 F1000
G1 X29.773 Y187.667 F1000
G1 X29.773 Y187.061 F1000
G1 X30.682 Y187.061 F1000
G1 X30.985 Y186.758 F1000
G1 X30.985 Y186.152 F1000
G1 X30.682 Y185.242 F1000
G1 X30.682 Y184.939 F1000
G1 X30.985 Y184.636 F1000
G1 X31.288 Y184.636 F1000
G1 X31.894 Y184.939 F1000
G1 X32.197 Y185.242 F1000
G1 X32.803 Y186.152 F1000
G0 Z7
G0 Z7
G0 X33.053 Y186.152
G1 Z2
G1 X33.659 Y187.061 F1000
G1 X34.568 Y188.576 F1000
G1 X34.871 Y189.182 F1000
G1 X35.174 Y190.091 F1000
G1 X35.174 Y190.697 F1000
G1 X34.871 Y191.000 F1000
G1 X34.265 Y190.697 F1000
G1 X33.962 Y190.091 F1000
G1 X33.659 Y188.879 F1000
G1 X33.356 Y187.061 F1000
G1 X33.053 Y184.636 F1000
G1 X33.356 Y185.545 F1000
G1 X33.659 Y186.152 F1000
G1 X34.265 Y187.061 F1000
G1 X34.871 Y187.364 F1000
G1 X35.477 Y187.364 F1000
G1 X35.780 Y187.061 F1000
G1 X35.780 Y186.455 F1000
G1 X35.174 Y186.152 F1000
G1 X34.265 Y186.152 F1000
G1 X34.871 Y185.848 F1000
G1 X35.174 Y184.939 F1000
G1 X35.477 Y184.636 F1000
G1 X35.780 Y184.636 F1000
G1 X36.386 Y184.939 F1000
G1 X36.689 Y185.242 F1000
G1 X37.295 Y186.152 F1000
G0 Z7
G0 Z7
G0 X38.455 Y188.879
G1 Z2
G1 X38.455 Y188.576 F1000
G1 X38.758 Y188.576 F1000
G1 X38.758 Y188.879 F1000
G1 X38.455 Y188.879 F1000
G0 Z7
G0 X37.545 Y186.152
G1 Z2
G1 X38.152 Y187.364 F1000
G1 X37.545 Y185.545 F1000
G1 X37.545 Y184.939 F1000
G1 X37.848 Y184.636 F1000
G1 X38.152 Y184.636 F1000
G1 X38.758 Y184.939 F1000
G1 X39.061 Y185.242 F1000
G1 X39.667 Y186.152 F1000
G0 Z7
G0 Z7
G0 X39.917 Y186.152
G1 Z2
G1 X40.523 Y187.061 F1000
G1 X40.826 Y187.667 F1000
G1 X40.826 Y187.061 F1000
G1 X41.432 Y186.152 F1000
G1 X41.735 Y185.545 F1000
G1 X41.735 Y184.939 F1000
G1 X41.129 Y184.636 F1000
G0 Z7
G0 X39.917 Y184.939
G1 Z2
G1 X40.523 Y184.636 F1000
G1 X41.735 Y184.636 F1000
G1 X42.341 Y184.939 F1000
G1 X42.644 Y185.242 F1000
G1 X43.250 Y186.152 F1000
G0 Z7
G0 Z7
G0 X43.500 Y186.152
G1 Z2
G1 X44.106 Y187.061 F1000
G1 X45.015 Y188.576 F1000
G1 X45.318 Y189.182 F1000
G1 X45.621 Y190.091 F1000
G1 X45.621 Y190.697 F1000
G1 X45.318 Y191.000 F1000
G1 X44.712 Y190.697 F1000
G1 X44.409 Y190.091 F1000
G1 X44.106 Y188.879 F1000
G1 X43.803 Y187.061 F1000
G1 X43.500 Y184.636 F1000
G1 X43.803 Y185.545 F1000
G1 X44.106 Y186.152 F1000
G1 X44.712 Y187.061 F1000
G1 X45.318 Y187.364 F1000
G1 X45.924 Y187.364 F1000
G1 X46.227 Y187.061 F1000
G1 X46.227 Y186.455 F1000
G1 X45.924 Y185.545 F1000
G1 X45.924 Y184.939 F1000
G1 X46.227 Y184.636 F1000
G1 X46.530 Y184.636 F1000
G1 X47.136 Y184.939 F1000
G1 X47.439 Y185.242 F1000
G1 X48.045 Y186.152 F1000
G0 Z7
G0 Z7
G0 X52.167 Y186.758
G1 Z2
G1 X52.167 Y187.061 F1000
G1 X51.864 Y187.364 F1000
G1 X51.258 Y187.364 F1000
G1 X50.652 Y187.061 F1000
G1 X50.348 Y186.758 F1000
G1 X50.045 Y186.152 F1000
G1 X50.045 Y185.545 F1000
G1 X50.348 Y184.939 F1000
G1 X50.955 Y184.636 F1000
G1 X51.864 Y184.636 F1000
G1 X52.773 Y185.242 F1000
G1 X53.379 Y186.152 F1000
G0 Z7
G0 Z7
G0 X53.629 Y186.152
G1 Z2
G1 X54.235 Y187.061 F1000
G1 X55.144 Y188.576 F1000
G1 X55.447 Y189.182 F1000
G1 X55.750 Y190.091 F1000
G1 X55.750 Y190.697 F1000
G1 X55.447 Y191.000 F1000
G1 X54.841 Y190.697 F1000
G1 X54.538 Y190.091 F1000
G1 X54.235 Y188.879 F1000
G1 X53.932 Y187.061 F1000
G1 X53.629 Y184.636 F1000
G1 X53.932 Y185.545 F1000
G1 X54.235 Y186.152 F1000
G1 X54.841 Y187.061 F1000
G1 X55.447 Y187.364 F1000
G1 X56.053 Y187.364 F1000
G1 X56.356 Y187.061 F1000
G1 X56.356 Y186.455 F1000
G1 X56.053 Y185.545 F1000
G1 X56.053 Y184.939 F1000
G1 X56.356 Y184.636 F1000
G1 X56.659 Y184.636 F1000
G1 X57.265 Y184.939 F1000
G1 X57.568 Y185.242 F1000
G1 X58.174 Y186.152 F1000
G0 Z7
G0 Z7
G0 X61.152 Y186.455
G1 Z2
G1 X60.848 Y187.061 F1000
G1 X60.242 Y187.364 F1000
G1 X59.636 Y187.364 F1000
G1 X59.030 Y187.061 F1000
G1 X58.727 Y186.758 F1000
G1 X58.424 Y186.152 F1000
G1 X58.424 Y185.545 F1000
G1 X58.727 Y184.939 F1000
G1 X59.333 Y184.636 F1000
G1 X59.939 Y184.636 F1000
G1 X60.545 Y184.939 F1000
G1 X60.848 Y185.545 F1000
G1 X61.455 Y187.364 F1000
G1 X61.152 Y185.848 F1000
G1 X61.152 Y184.939 F1000
G1 X61.455 Y184.636 F1000
G1 X61.758 Y184.636 F1000
G1 X62.364 Y184.939 F1000
G1 X62.667 Y185.242 F1000
G1 X63.273 Y186.152 F1000
G0 Z7
G0 Z7
G0 X63.523 Y186.152
G1 Z2
G1 X64.129 Y187.061 F1000
G1 X64.432 Y187.667 F1000
G1 X64.432 Y187.061 F1000
G1 X65.341 Y187.061 F1000
G1 X65.644 Y186.758 F1000
G1 X65.644 Y186.152 F1000
G1 X65.341 Y185.242 F1000
G1 X65.341 Y184.939 F1000
G1 X65.644 Y184.636 F1000
G1 X65.947 Y184.636 F1000
G1 X66.553 Y184.939 F1000
G1 X66.856 Y185.242 F1000
G1 X67.462 Y186.152 F1000
G0 Z7
G0 Z7
G0 X70.439 Y186.455
G1 Z2
G1 X70.136 Y187.061 F1000
G1 X69.530 Y187.364 F1000
G1 X68.924 Y187.364 F1000
G1 X68.318 Y187.061 F1000
G1 X68.015 Y186.758 F1000
G1 X67.712 Y186.152 F1000
G1 X67.712 Y185.545 F1000
G1 X68.015 Y184.939 F1000
G1 X68.621 Y184.636 F1000
G1 X69.227 Y184.636 F1000
G1 X69.833 Y184.939 F1000
G1 X70.136 Y185.545 F1000
G1 X70.742 Y187.364 F1000
G1 X70.439 Y185.848 F1000
G1 X70.439 Y184.939 F1000
G1 X70.742 Y184.636 F1000
G1 X71.045 Y184.636 F1000
G1 X71.652 Y184.939 F1000
G1 X71.955 Y185.242 F1000
G1 X72.561 Y186.152 F1000
G0 Z7
G0 Z7
G0 X74.932 Y186.758
G1 Z2
G1 X74.932 Y187.061 F1000
G1 X74.629 Y187.364 F1000
G1 X74.023 Y187.364 F1000
G1 X73.417 Y187.061 F1000
G1 X73.114 Y186.758 F1000
G1 X72.811 Y186.152 F1000
G1 X72.811 Y185.545 F1000
G1 X73.114 Y184.939 F1000
G1 X73.720 Y184.636 F1000
G1 X74.629 Y184.636 F1000
G1 X75.538 Y185.242 F1000
G1 X76.144 Y186.152 F1000
G0 Z7
G0 Z7
G0 X76.394 Y186.152
G1 Z2
G1 X77.000 Y187.061 F1000
G1 X77.606 Y188.273 F1000
G0 Z7
G0 X78.515 Y191.000
G1 Z2
G1 X76.697 Y185.545 F1000
G1 X76.697 Y184.939 F1000
G1 X77.000 Y184.636 F1000
G1 X77.606 Y184.636 F1000
G1 X78.212 Y184.939 F1000
G1 X78.515 Y185.242 F1000
G1 X79.121 Y186.152 F1000
G0 Z7
G0 X76.697 Y188.576
G1 Z2
G1 X78.818 Y188.576 F1000
G0 Z7
G0 Z7
G0 X79.674 Y185.242
G1 Z2
G1 X80.280 Y185.545 F1000
G1 X80.583 Y185.848 F1000
G1 X80.886 Y186.455 F1000
G1 X80.886 Y187.061 F1000
G1 X80.583 Y187.364 F1000
G1 X80.280 Y187.364 F1000
G1 X79.674 Y187.061 F1000
G1 X79.371 Y186.455 F1000
G1 X79.371 Y185.545 F1000
G1 X79.674 Y184.939 F1000
G1 X80.280 Y184.636 F1000
G1 X80.886 Y184.636 F1000
G1 X81.492 Y184.939 F1000
G1 X81.795 Y185.242 F1000
G1 X82.402 Y186.152 F1000
G0 Z7
G0 Z7
G0 X82.652 Y186.152
G1 Z2
G1 X83.258 Y187.061 F1000
G1 X83.561 Y187.667 F1000
G1 X83.561 Y187.061 F1000
G1 X84.470 Y187.061 F1000
G1 X84.773 Y186.758 F1000
G1 X84.773 Y186.152 F1000
G1 X84.470 Y185.242 F1000
G1 X84.470 Y184.939 F1000
G1 X84.773 Y184.636 F1000
G1 X85.076 Y184.636 F1000
G1 X85.682 Y184.939 F1000
G1 X85.985 Y185.242 F1000
G1 X86.591 Y186.152 F1000
G0 Z7
G0 Z7
G0 X86.841 Y186.152
G1 Z2
G1 X87.447 Y187.061 F1000
G1 X87.750 Y187.667 F1000
G1 X87.750 Y187.061 F1000
G1 X88.356 Y186.152 F1000
G1 X88.659 Y185.545 F1000
G1 X88.659 Y184.939 F1000
G1 X88.053 Y184.636 F1000
G0 Z7
G0 X86.841 Y184.939
G1 Z2
G1 X87.447 Y184.636 F1000
G1 X88.659 Y184.636 F1000
G1 X89.265 Y184.939 F1000
G1 X89.568 Y185.242 F1000
G1 X90.174 Y186.152 F1000
G0 Z7
G0 Z7
G0 X11.212 Y178.000
G1 Z2
G1 X11.212 Y175.879 F1000
G0 Z7
G0 X13.636 Y178.000
G1 Z2
G1 X13.636 Y175.879 F1000
G0 Z7
G0 Z7
G0 X17.522 Y176.182
G1 Z2
G1 X17.522 Y175.879 F1000
G1 X17.825 Y175.576 F1000
G1 X18.431 Y175.576 F1000
G1 X19.038 Y175.879 F1000
G1 X19.341 Y176.485 F1000
G1 X19.341 Y177.091 F1000
G1 X19.038 Y177.697 F1000
G1 X18.431 Y178.000 F1000
G1 X17.522 Y178.000 F1000
G1 X16.613 Y177.697 F1000
G1 X16.007 Y177.091 F1000
G1 X15.401 Y176.182 F1000
G1 X15.098 Y175.576 F1000
G1 X14.795 Y174.364 F1000
G1 X14.795 Y173.152 F1000
G1 X15.098 Y172.242 F1000
G1 X15.401 Y171.939 F1000
G1 X16.007 Y171.636 F1000
G1 X16.613 Y171.636 F1000
G1 X17.522 Y171.939 F1000
G1 X18.128 Y172.545 F1000
G0 Z7
G0 X16.916 Y171.864
G1 Z2
G1 X15.098 Y168.909 F1000
G1 X14.795 Y168.303 F1000
G1 X14.189 Y168.000 F1000
G1 X13.886 Y168.303 F1000
G1 X13.886 Y168.909 F1000
G1 X14.189 Y169.818 F1000
G1 X15.098 Y170.727 F1000
G1 X16.007 Y171.333 F1000
G1 X16.613 Y171.636 F1000
G1 X17.522 Y172.242 F1000
G1 X18.431 Y173.152 F1000
G0 Z7
G0 X15.401 Y178.909
G1 Z2
G1 X16.916 Y178.909 F1000
G1 X18.128 Y178.606 F1000
G0 Z7
G0 Z7
G0 X22.318 Y173.455
G1 Z2
G1 X22.015 Y174.061 F1000
G1 X21.409 Y174.364 F1000
G1 X20.803 Y174.364 F1000
G1 X20.197 Y174.061 F1000
G1 X19.894 Y173.758 F1000
G1 X19.591 Y173.152 F1000
G1 X19.591 Y172.545 F1000
G1 X19.894 Y171.939 F1000
G1 X20.500 Y171.636 F1000
G1 X21.106 Y171.636 F1000
G1 X21.712 Y171.939 F1000
G1 X22.015 Y172.242 F1000
G0 Z7
G0 X22.621 Y174.364
G1 Z2
G1 X22.015 Y172.242 F1000
G1 X20.803 Y168.909 F1000
G1 X20.500 Y168.303 F1000
G1 X19.894 Y168.000 F1000
G1 X19.591 Y168.303 F1000
G1 X19.591 Y168.909 F1000
G1 X19.894 Y169.818 F1000
G1 X20.803 Y170.727 F1000
G1 X21.712 Y171.333 F1000
G1 X22.318 Y171.636 F1000
G1 X23.227 Y172.242 F1000
G1 X24.136 Y173.152 F1000
G0 Z7
G0 X20.197 Y175.273
G1 Z2
G1 X21.409 Y175.273 F1000
G1 X22.015 Y174.970 F1000
G0 Z7
G0 Z7
G0 X28.628 Y173.152
G1 Z2
G1 X28.022 Y173.758 F1000
G1 X27.416 Y174.667 F1000
G1 X27.113 Y175.273 F1000
G1 X26.810 Y176.182 F1000
G1 X26.810 Y177.091 F1000
G1 X27.113 Y177.697 F1000
G1 X27.416 Y178.000 F1000
G1 X28.022 Y178.000 F1000
G1 X28.325 Y177.697 F1000
G1 X28.628 Y177.091 F1000
G1 X28.628 Y176.182 F1000
G1 X28.325 Y174.667 F1000
G1 X27.719 Y173.152 F1000
G1 X27.416 Y172.545 F1000
G1 X26.810 Y171.939 F1000
G1 X26.204 Y171.636 F1000
G1 X25.598 Y171.636 F1000
G1 X24.992 Y171.939 F1000
G1 X24.689 Y172.545 F1000
G1 X24.689 Y173.152 F1000
G1 X24.992 Y173.455 F1000
G1 X25.598 Y173.455 F1000
G1 X26.204 Y173.152 F1000
G0 Z7
G0 X26.659 Y179.212
G1 Z2
G1 X26.810 Y179.212 F1000
G1 X26.962 Y179.212 F1000
G0 Z7
G0 Z7
G0 X28.878 Y173.152
G1 Z2
G1 X29.484 Y174.364 F1000
G1 X28.878 Y172.545 F1000
G1 X28.878 Y171.939 F1000
G1 X29.181 Y171.636 F1000
G1 X29.484 Y171.636 F1000
G1 X30.090 Y171.939 F1000
G1 X30.393 Y172.242 F1000
G1 X30.999 Y173.152 F1000
G0 Z7
G0 Z7
G0 X34.885 Y178.000
G1 Z2
G1 X33.976 Y177.697 F1000
G1 X33.370 Y177.091 F1000
G1 X32.764 Y176.182 F1000
G1 X32.461 Y175.576 F1000
G1 X32.158 Y174.364 F1000
G1 X32.158 Y173.152 F1000
G1 X32.461 Y172.242 F1000
G1 X32.764 Y171.939 F1000
G1 X33.370 Y171.636 F1000
G1 X33.976 Y171.636 F1000
G1 X34.885 Y171.939 F1000
G1 X35.491 Y172.545 F1000
G1 X36.097 Y173.455 F1000
G1 X36.401 Y174.061 F1000
G1 X36.704 Y175.273 F1000
G1 X36.704 Y176.485 F1000
G1 X36.401 Y177.394 F1000
G1 X36.097 Y177.697 F1000
G1 X35.491 Y178.000 F1000
G1 X34.885 Y178.000 F1000
G1 X34.279 Y177.394 F1000
G1 X34.279 Y176.485 F1000
G1 X34.582 Y175.576 F1000
G1 X35.188 Y174.667 F1000
G1 X35.794 Y174.061 F1000
G1 X36.704 Y173.455 F1000
G1 X37.310 Y173.152 F1000
G0 Z7
G0 X33.370 Y178.909
G1 Z2
G1 X33.673 Y178.909 F1000
G1 X33.522 Y179.061 F1000
G0 Z7
G0 X35.491 Y178.909
G1 Z2
G1 X35.794 Y178.909 F1000
G1 X35.643 Y179.061 F1000
G0 Z7
G0 Z7
G0 X39.378 Y174.364
G1 Z2
G1 X38.772 Y174.364 F1000
G1 X38.166 Y174.061 F1000
G1 X37.863 Y173.758 F1000
G1 X37.560 Y173.152 F1000
G1 X37.560 Y172.545 F1000
G1 X37.863 Y171.939 F1000
G1 X38.469 Y171.636 F1000
G1 X39.075 Y171.636 F1000
G1 X39.681 Y171.939 F1000
G1 X39.984 Y172.242 F1000
G1 X40.287 Y172.848 F1000
G1 X40.287 Y173.455 F1000
G1 X39.984 Y174.061 F1000
G1 X39.378 Y174.364 F1000
G1 X39.075 Y174.061 F1000
G1 X39.075 Y173.455 F1000
G1 X39.378 Y172.848 F1000
G1 X39.984 Y172.545 F1000
G1 X40.893 Y172.545 F1000
G1 X41.499 Y172.848 F1000
G1 X41.802 Y173.152 F1000
G0 Z7
G0 X38.166 Y175.273
G1 Z2
G1 X38.469 Y175.273 F1000
G1 X38.318 Y175.424 F1000
G0 Z7
G0 X39.378 Y175.273
G1 Z2
G1 X39.681 Y175.273 F1000
G1 X39.530 Y175.424 F1000
G0 Z7
G0 Z7
G0 X43.567 Y175.879
G1 Z2
G1 X42.961 Y176.182 F1000
G1 X42.658 Y176.788 F1000
G1 X42.658 Y177.091 F1000
G1 X42.961 Y177.697 F1000
G1 X43.567 Y178.000 F1000
G1 X43.870 Y178.000 F1000
G1 X44.476 Y177.697 F1000
G1 X44.779 Y177.091 F1000
G1 X44.779 Y176.485 F1000
G1 X44.476 Y175.273 F1000
G1 X44.173 Y174.364 F1000
G1 X43.870 Y173.152 F1000
G1 X43.870 Y172.545 F1000
G1 X44.173 Y171.939 F1000
G1 X44.779 Y171.636 F1000
G1 X45.385 Y171.636 F1000
G1 X45.991 Y171.939 F1000
G1 X46.294 Y172.242 F1000
G1 X46.900 Y173.455 F1000
G1 X47.810 Y175.879 F1000
G1 X48.416 Y178.000 F1000
G0 Z7
G0 X47.810 Y175.879
G1 Z2
G1 X47.507 Y174.667 F1000
G1 X47.204 Y172.848 F1000
G1 X47.204 Y171.939 F1000
G1 X47.507 Y171.636 F1000
G1 X47.810 Y171.636 F1000
G1 X48.416 Y171.939 F1000
G1 X48.719 Y172.242 F1000
G1 X49.325 Y173.152 F1000
G0 Z7
G0 X43.264 Y178.909
G1 Z2
G1 X43.567 Y178.909 F1000
G0 Z7
G0 X46.597 Y178.909
G1 Z2
G1 X46.900 Y178.909 F1000
G0 Z7
G0 Z7
G0 X49.575 Y173.152
G1 Z2
G1 X50.181 Y174.364 F1000
G1 X49.575 Y172.545 F1000
G1 X49.575 Y171.939 F1000
G1 X49.878 Y171.636 F1000
G1 X50.484 Y171.636 F1000
G1 X51.090 Y171.939 F1000
G1 X51.696 Y172.545 F1000
G1 X52.302 Y173.455 F1000
G0 Z7
G0 X52.605 Y174.364
G1 Z2
G1 X51.999 Y172.545 F1000
G1 X51.999 Y171.939 F1000
G1 X52.302 Y171.636 F1000
G1 X52.605 Y171.636 F1000
G1 X53.211 Y171.939 F1000
G1 X53.514 Y172.242 F1000
G1 X54.120 Y173.152 F1000
G0 Z7
G0 X50.181 Y175.273
G1 Z2
G1 X50.484 Y175.273 F1000
G0 Z7
G0 X51.393 Y175.273
G1 Z2
G1 X51.696 Y175.273 F1000
G0 Z7
G0 Z7
G0 X58.006 Y176.182
G1 Z2
G1 X58.006 Y175.879 F1000
G1 X58.309 Y175.576 F1000
G1 X58.915 Y175.576 F1000
G1 X59.522 Y175.879 F1000
G1 X59.825 Y176.485 F1000
G1 X59.825 Y177.091 F1000
G1 X59.522 Y177.697 F1000
G1 X58.915 Y178.000 F1000
G1 X58.006 Y178.000 F1000
G1 X57.097 Y177.697 F1000
G1 X56.491 Y177.091 F1000
G1 X55.885 Y176.182 F1000
G1 X55.582 Y175.576 F1000
G1 X55.279 Y174.364 F1000
G1 X55.279 Y173.152 F1000
G1 X55.582 Y172.242 F1000
G1 X55.885 Y171.939 F1000
G1 X56.491 Y171.636 F1000
G1 X57.097 Y171.636 F1000
G1 X58.006 Y171.939 F1000
G1 X58.612 Y172.545 F1000
G1 X58.915 Y173.152 F1000
G0 Z7
G0 X57.400 Y171.030
G1 Z2
G1 X56.794 Y170.727 F1000
G1 X56.491 Y170.727 F1000
G1 X56.188 Y171.030 F1000
G1 X56.188 Y171.333 F1000
G0 Z7
G0 Z7
G0 X62.196 Y173.758
G1 Z2
G1 X62.196 Y174.061 F1000
G1 X61.893 Y174.364 F1000
G1 X61.287 Y174.364 F1000
G1 X60.681 Y174.061 F1000
G1 X60.378 Y173.758 F1000
G1 X60.075 Y173.152 F1000
G1 X60.075 Y172.545 F1000
G1 X60.378 Y171.939 F1000
G1 X60.984 Y171.636 F1000
G1 X61.893 Y171.636 F1000
G1 X62.802 Y172.242 F1000
G1 X63.408 Y173.152 F1000
G0 Z7
G0 X61.287 Y171.030
G1 Z2
G1 X60.984 Y170.727 F1000
G1 X60.681 Y170.727 F1000
G1 X60.378 Y171.030 F1000
G1 X60.378 Y171.333 F1000
G0 Z7
G0 Z7
G0 X63.658 Y171.636
G1 Z2
G1 X64.264 Y171.939 F1000
G1 X64.870 Y172.545 F1000
G1 X65.779 Y173.758 F1000
G1 X66.385 Y174.667 F1000
G1 X66.991 Y175.879 F1000
G1 X67.294 Y176.788 F1000
G1 X67.294 Y177.697 F1000
G1 X66.991 Y178.000 F1000
G1 X66.688 Y178.000 F1000
G1 X66.385 Y177.697 F1000
G1 X66.082 Y177.091 F1000
G1 X66.082 Y176.485 F1000
G1 X66.385 Y175.879 F1000
G1 X66.991 Y175.273 F1000
G1 X67.900 Y174.667 F1000
G1 X68.506 Y174.061 F1000
G1 X68.810 Y173.455 F1000
G1 X68.810 Y172.848 F1000
G1 X68.506 Y172.242 F1000
G1 X68.203 Y171.939 F1000
G1 X67.294 Y171.636 F1000
G1 X66.082 Y171.636 F1000
G1 X65.173 Y171.939 F1000
G1 X64.567 Y172.545 F1000
G1 X64.264 Y173.152 F1000
G1 X64.264 Y173.758 F1000
G0 Z7
G0 X66.082 Y171.030
G1 Z2
G1 X65.476 Y170.727 F1000
G1 X65.173 Y170.727 F1000
G1 X64.870 Y171.030 F1000
G1 X64.870 Y171.333 F1000
G0 Z7
G0 Z7
G0 X69.060 Y173.152
G1 Z2
G1 X69.666 Y174.061 F1000
G1 X69.969 Y174.667 F1000
G1 X69.969 Y174.061 F1000
G1 X70.575 Y173.152 F1000
G1 X70.878 Y172.545 F1000
G1 X70.878 Y171.939 F1000
G1 X70.272 Y171.636 F1000
G0 Z7
G0 X69.060 Y171.939
G1 Z2
G1 X69.666 Y171.636 F1000
G1 X70.878 Y171.636 F1000
G1 X71.484 Y171.939 F1000
G1 X71.787 Y172.242 F1000
G1 X72.393 Y173.152 F1000
G0 Z7
G0 X69.969 Y171.030
G1 Z2
G1 X69.666 Y170.727 F1000
G1 X69.363 Y170.727 F1000
G1 X69.060 Y171.030 F1000
G1 X69.060 Y171.333 F1000
G0 Z7
G0 Z7
G0 X73.855 Y178.000
G1 Z2
G1 X73.855 Y175.879 F1000
G0 Z7
G0 X76.280 Y178.000
G1 Z2
G1 X76.280 Y175.879 F1000
G0 Z7
G0 Z7
G0 X13.333 Y166.212
G1 Z2
G1 X11.212 Y156.515 F1000
G0 Z7
G0 X15.152 Y166.212
G1 Z2
G1 X13.030 Y156.515 F1000
G0 Z7
G0 X11.212 Y162.273
G1 Z2
G1 X15.455 Y162.273 F1000
G0 Z7
G0 X10.909 Y160.455
G1 Z2
G1 X15.152 Y160.455 F1000
G0 Z7
G0 Z7
G0 X21.394 Y165.000
G1 Z2
G1 X20.788 Y164.697 F1000
G1 X20.485 Y164.091 F1000
G1 X20.182 Y162.879 F1000
G1 X19.879 Y161.061 F1000
G1 X19.576 Y160.152 F1000
G1 X19.273 Y159.545 F1000
G1 X18.667 Y158.939 F1000
G1 X18.061 Y158.636 F1000
G1 X17.455 Y158.636 F1000
G1 X17.152 Y158.939 F1000
G1 X17.152 Y159.545 F1000
G1 X17.455 Y159.848 F1000
G1 X18.061 Y159.848 F1000
G1 X18.667 Y159.545 F1000
G1 X19.273 Y158.939 F1000
G1 X20.182 Y158.636 F1000
G1 X21.091 Y158.636 F1000
G1 X22.000 Y158.939 F1000
G1 X22.606 Y159.545 F1000
G1 X23.212 Y160.758 F1000
G1 X23.515 Y162.273 F1000
G1 X23.515 Y163.485 F1000
G1 X23.212 Y164.394 F1000
G1 X22.909 Y164.697 F1000
G1 X22.303 Y165.000 F1000
G1 X21.394 Y165.000 F1000
G1 X20.788 Y164.394 F1000
G1 X20.788 Y163.788 F1000
G1 X21.091 Y162.879 F1000
G1 X21.697 Y161.970 F1000
G1 X22.303 Y161.364 F1000
G1 X23.212 Y160.758 F1000
G1 X23.818 Y160.455 F1000
G0 Z7
G0 Z7
G0 X24.977 Y162.879
G1 Z2
G1 X24.977 Y162.576 F1000
G1 X25.280 Y162.576 F1000
G1 X25.280 Y162.879 F1000
G1 X24.977 Y162.879 F1000
G0 Z7
G0 X24.068 Y160.152
G1 Z2
G1 X24.674 Y161.364 F1000
G1 X24.068 Y159.545 F1000
G1 X24.068 Y158.939 F1000
G1 X24.371 Y158.636 F1000
G1 X24.674 Y158.636 F1000
G1 X25.280 Y158.939 F1000
G1 X25.583 Y159.242 F1000
G1 X26.189 Y160.152 F1000
G0 Z7
G0 Z7
G0 X29.167 Y160.455
G1 Z2
G1 X28.864 Y161.061 F1000
G1 X28.258 Y161.364 F1000
G1 X27.652 Y161.364 F1000
G1 X27.045 Y161.061 F1000
G1 X26.742 Y160.758 F1000
G1 X26.439 Y160.152 F1000
G1 X26.439 Y159.545 F1000
G1 X26.742 Y158.939 F1000
G1 X27.348 Y158.636 F1000
G1 X27.955 Y158.636 F1000
G1 X28.561 Y158.939 F1000
G1 X28.864 Y159.242 F1000
G0 Z7
G0 X29.470 Y161.364
G1 Z2
G1 X28.864 Y159.242 F1000
G1 X27.652 Y155.909 F1000
G1 X27.348 Y155.303 F1000
G1 X26.742 Y155.000 F1000
G1 X26.439 Y155.303 F1000
G1 X26.439 Y155.909 F1000
G1 X26.742 Y156.818 F1000
G1 X27.652 Y157.727 F1000
G1 X28.561 Y158.333 F1000
G1 X29.167 Y158.636 F1000
G1 X30.076 Y159.242 F1000
G1 X30.985 Y160.152 F1000
G0 Z7
G0 Z7
G0 X32.144 Y162.879
G1 Z2
G1 X32.144 Y162.576 F1000
G1 X32.447 Y162.576 F1000
G1 X32.447 Y162.879 F1000
G1 X32.144 Y162.879 F1000
G0 Z7
G0 X31.235 Y160.152
G1 Z2
G1 X31.841 Y161.364 F1000
G1 X31.235 Y159.545 F1000
G1 X31.235 Y158.939 F1000
G1 X31.538 Y158.636 F1000
G1 X31.841 Y158.636 F1000
G1 X32.447 Y158.939 F1000
G1 X32.750 Y159.242 F1000
G1 X33.356 Y160.152 F1000
G0 Z7
G0 Z7
G0 X33.606 Y160.152
G1 Z2
G1 X34.212 Y161.061 F1000
G1 X34.818 Y162.273 F1000
G0 Z7
G0 X35.727 Y165.000
G1 Z2
G1 X33.909 Y159.545 F1000
G1 X33.909 Y158.939 F1000
G1 X34.212 Y158.636 F1000
G1 X34.818 Y158.636 F1000
G1 X35.424 Y158.939 F1000
G1 X35.727 Y159.242 F1000
G1 X36.333 Y160.152 F1000
G0 Z7
G0 X33.909 Y162.576
G1 Z2
G1 X36.030 Y162.576 F1000
G0 Z7
G0 Z7
G0 X36.583 Y160.152
G1 Z2
G1 X37.189 Y161.061 F1000
G1 X37.492 Y161.667 F1000
G1 X37.492 Y161.061 F1000
G1 X38.098 Y160.152 F1000
G1 X38.402 Y159.545 F1000
G1 X38.402 Y158.939 F1000
G1 X37.795 Y158.636 F1000
G0 Z7
G0 X36.583 Y158.939
G1 Z2
G1 X37.189 Y158.636 F1000
G1 X38.402 Y158.636 F1000
G1 X39.008 Y158.939 F1000
G1 X39.311 Y159.242 F1000
G1 X39.917 Y160.152 F1000
G0 Z7
G0 Z7
G0 X11.212 Y152.000
G1 Z2
G1 X11.212 Y149.879 F1000
G0 Z7
G0 X13.636 Y152.000
G1 Z2
G1 X13.636 Y149.879 F1000
G0 Z7
G0 Z7
G0 X16.614 Y152.000
G1 Z2
G1 X15.705 Y151.697 F1000
G1 X15.098 Y150.788 F1000
G1 X14.795 Y149.273 F1000
G1 X14.795 Y148.364 F1000
G1 X15.098 Y146.848 F1000
G1 X15.705 Y145.939 F1000
G1 X16.614 Y145.636 F1000
G1 X17.220 Y145.636 F1000
G1 X18.129 Y145.939 F1000
G1 X18.735 Y146.848 F1000
G1 X19.038 Y148.364 F1000
G1 X19.038 Y149.273 F1000
G1 X18.735 Y150.788 F1000
G1 X18.129 Y151.697 F1000
G1 X17.220 Y152.000 F1000
G1 X16.614 Y152.000 F1000
G0 Z7
G0 Z7
G0 X21.106 Y150.788
G1 Z2
G1 X21.712 Y151.091 F1000
G1 X22.621 Y152.000 F1000
G1 X22.621 Y145.636 F1000
G0 Z7
G0 Z7
G0 X24.083 Y150.485
G1 Z2
G1 X24.083 Y150.788 F1000
G1 X24.386 Y151.394 F1000
G1 X24.689 Y151.697 F1000
G1 X25.295 Y152.000 F1000
G1 X26.508 Y152.000 F1000
G1 X27.114 Y151.697 F1000
G1 X27.417 Y151.394 F1000
G1 X27.720 Y150.788 F1000
G1 X27.720 Y150.182 F1000
G1 X27.417 Y149.576 F1000
G1 X26.811 Y148.667 F1000
G1 X23.780 Y145.636 F1000
G1 X28.023 Y145.636 F1000
G0 Z7
G0 Z7
G0 X29.788 Y152.000
G1 Z2
G1 X33.121 Y152.000 F1000
G1 X31.303 Y149.576 F1000
G1 X32.212 Y149.576 F1000
G1 X32.818 Y149.273 F1000
G1 X33.121 Y148.970 F1000
G1 X33.424 Y148.061 F1000
G1 X33.424 Y147.455 F1000
G1 X33.121 Y146.545 F1000
G1 X32.515 Y145.939 F1000
G1 X31.606 Y145.636 F1000
G1 X30.697 Y145.636 F1000
G1 X29.788 Y145.939 F1000
G1 X29.485 Y146.242 F1000
G1 X29.182 Y146.848 F1000
G0 Z7
G0 Z7
G0 X37.614 Y152.000
G1 Z2
G1 X34.583 Y147.758 F1000
G1 X39.129 Y147.758 F1000
G0 Z7
G0 X37.614 Y152.000
G1 Z2
G1 X37.614 Y145.636 F1000
G0 Z7
G0 Z7
G0 X43.924 Y152.000
G1 Z2
G1 X40.894 Y152.000 F1000
G1 X40.591 Y149.273 F1000
G1 X40.894 Y149.576 F1000
G1 X41.803 Y149.879 F1000
G1 X42.712 Y149.879 F1000
G1 X43.621 Y149.576 F1000
G1 X44.227 Y148.970 F1000
G1 X44.530 Y148.061 F1000
G1 X44.530 Y147.455 F1000
G1 X44.227 Y146.545 F1000
G1 X43.621 Y145.939 F1000
G1 X42.712 Y145.636 F1000
G1 X41.803 Y145.636 F1000
G1 X40.894 Y145.939 F1000
G1 X40.591 Y146.242 F1000
G1 X40.288 Y146.848 F1000
G0 Z7
G0 Z7
G0 X49.629 Y151.091
G1 Z2
G1 X49.326 Y151.697 F1000
G1 X48.417 Y152.000 F1000
G1 X47.811 Y152.000 F1000
G1 X46.902 Y151.697 F1000
G1 X46.295 Y150.788 F1000
G1 X45.992 Y149.273 F1000
G1 X45.992 Y147.758 F1000
G1 X46.295 Y146.545 F1000
G1 X46.902 Y145.939 F1000
G1 X47.811 Y145.636 F1000
G1 X48.114 Y145.636 F1000
G1 X49.023 Y145.939 F1000
G1 X49.629 Y146.545 F1000
G1 X49.932 Y147.455 F1000
G1 X49.932 Y147.758 F1000
G1 X49.629 Y148.667 F1000
G1 X49.023 Y149.273 F1000
G1 X48.114 Y149.576 F1000
G1 X47.811 Y149.576 F1000
G1 X46.902 Y149.273 F1000
G1 X46.295 Y148.667 F1000
G1 X45.992 Y147.758 F1000
G0 Z7
G0 Z7
G0 X55.333 Y152.000
G1 Z2
G1 X52.303 Y145.636 F1000
G0 Z7
G0 X51.091 Y152.000
G1 Z2
G1 X55.333 Y152.000 F1000
G0 Z7
G0 Z7
G0 X58.008 Y152.000
G1 Z2
G1 X57.098 Y151.697 F1000
G1 X56.795 Y151.091 F1000
G1 X56.795 Y150.485 F1000
G1 X57.098 Y149.879 F1000
G1 X57.705 Y149.576 F1000
G1 X58.917 Y149.273 F1000
G1 X59.826 Y148.970 F1000
G1 X60.432 Y148.364 F1000
G1 X60.735 Y147.758 F1000
G1 X60.735 Y146.848 F1000
G1 X60.432 Y146.242 F1000
G1 X60.129 Y145.939 F1000
G1 X59.220 Y145.636 F1000
G1 X58.008 Y145.636 F1000
G1 X57.098 Y145.939 F1000
G1 X56.795 Y146.242 F1000
G1 X56.492 Y146.848 F1000
G1 X56.492 Y147.758 F1000
G1 X56.795 Y148.364 F1000
G1 X57.402 Y148.970 F1000
G1 X58.311 Y149.273 F1000
G1 X59.523 Y149.576 F1000
G1 X60.129 Y149.879 F1000
G1 X60.432 Y150.485 F1000
G1 X60.432 Y151.091 F1000
G1 X60.129 Y151.697 F1000
G1 X59.220 Y152.000 F1000
G1 X58.008 Y152.000 F1000
G0 Z7
G0 Z7
G0 X65.833 Y149.879
G1 Z2
G1 X65.530 Y148.970 F1000
G1 X64.924 Y148.364 F1000
G1 X64.015 Y148.061 F1000
G1 X63.712 Y148.061 F1000
G1 X62.803 Y148.364 F1000
G1 X62.197 Y148.970 F1000
G1 X61.894 Y149.879 F1000
G1 X61.894 Y150.182 F1000
G1 X62.197 Y151.091 F1000
G1 X62.803 Y151.697 F1000
G1 X63.712 Y152.000 F1000
G1 X64.015 Y152.000 F1000
G1 X64.924 Y151.697 F1000
G1 X65.530 Y151.091 F1000
G1 X65.833 Y149.879 F1000
G1 X65.833 Y148.364 F1000
G1 X65.530 Y146.848 F1000
G1 X64.924 Y145.939 F1000
G1 X64.015 Y145.636 F1000
G1 X63.409 Y145.636 F1000
G1 X62.500 Y145.939 F1000
G1 X62.197 Y146.545 F1000
G0 Z7
G0 Z7
G0 X67.295 Y152.000
G1 Z2
G1 X67.295 Y149.879 F1000
G0 Z7
G0 X69.720 Y152.000
G1 Z2
G1 X69.720 Y149.879 F1000
G0 Z7
G0 Z7
G0 X13.333 Y140.212
G1 Z2
G1 X11.212 Y130.515 F1000
G0 Z7
G0 X15.152 Y140.212
G1 Z2
G1 X13.030 Y130.515 F1000
G0 Z7
G0 X11.212 Y136.273
G1 Z2
G1 X15.455 Y136.273 F1000
G0 Z7
G0 X10.909 Y134.455
G1 Z2
G1 X15.152 Y134.455 F1000
G0 Z7
G0 Z7
G0 X21.394 Y138.394
G1 Z2
G1 X21.697 Y138.091 F1000
G1 X21.697 Y137.182 F1000
G1 X21.394 Y135.970 F1000
G1 X21.091 Y135.061 F1000
G1 X20.788 Y134.455 F1000
G1 X20.182 Y133.545 F1000
G1 X19.576 Y132.939 F1000
G1 X18.970 Y132.636 F1000
G1 X18.667 Y132.636 F1000
G1 X18.364 Y132.939 F1000
G1 X18.364 Y133.848 F1000
G1 X18.667 Y135.364 F1000
G1 X18.970 Y136.273 F1000
G1 X19.273 Y136.879 F1000
G1 X19.879 Y137.788 F1000
G1 X20.485 Y138.394 F1000
G1 X21.091 Y138.697 F1000
G1 X22.000 Y139.000 F1000
G1 X22.909 Y139.000 F1000
G1 X23.515 Y138.697 F1000
G1 X23.818 Y138.091 F1000
G1 X23.818 Y137.485 F1000
G1 X23.515 Y136.879 F1000
G1 X23.212 Y136.576 F1000
G1 X22.606 Y136.273 F1000
G1 X21.697 Y135.970 F1000
G0 Z7
G0 X21.394 Y135.970
G1 Z2
G1 X21.697 Y135.970 F1000
G1 X22.606 Y135.667 F1000
G1 X22.909 Y135.364 F1000
G1 X23.212 Y134.758 F1000
G1 X23.212 Y133.848 F1000
G1 X22.909 Y133.242 F1000
G1 X22.606 Y132.939 F1000
G1 X22.000 Y132.636 F1000
G1 X21.091 Y132.636 F1000
G1 X20.485 Y132.939 F1000
G1 X20.182 Y133.545 F1000
G0 Z7
G0 Z7
G0 X26.795 Y134.455
G1 Z2
G1 X26.492 Y135.061 F1000
G1 X25.886 Y135.364 F1000
G1 X25.280 Y135.364 F1000
G1 X24.674 Y135.061 F1000
G1 X24.371 Y134.758 F1000
G1 X24.068 Y134.152 F1000
G1 X24.068 Y133.545 F1000
G1 X24.371 Y132.939 F1000
G1 X24.977 Y132.636 F1000
G1 X25.583 Y132.636 F1000
G1 X26.189 Y132.939 F1000
G1 X26.492 Y133.545 F1000
G1 X27.098 Y135.364 F1000
G1 X26.795 Y133.848 F1000
G1 X26.795 Y132.939 F1000
G1 X27.098 Y132.636 F1000
G1 X27.402 Y132.636 F1000
G1 X28.008 Y132.939 F1000
G1 X28.311 Y133.242 F1000
G1 X28.917 Y134.152 F1000
G0 Z7
G0 Z7
G0 X29.167 Y134.152
G1 Z2
G1 X29.773 Y135.061 F1000
G1 X30.076 Y135.667 F1000
G1 X30.076 Y135.061 F1000
G1 X30.682 Y134.152 F1000
G1 X30.985 Y133.545 F1000
G1 X30.985 Y132.939 F1000
G1 X30.379 Y132.636 F1000
G0 Z7
G0 X29.167 Y132.939
G1 Z2
G1 X29.773 Y132.636 F1000
G1 X30.985 Y132.636 F1000
G1 X31.591 Y132.939 F1000
G1 X31.894 Y133.242 F1000
G1 X32.500 Y134.152 F1000
G0 Z7
G0 Z7
G0 X33.659 Y136.879
G1 Z2
G1 X33.659 Y136.576 F1000
G1 X33.962 Y136.576 F1000
G1 X33.962 Y136.879 F1000
G1 X33.659 Y136.879 F1000
G0 Z7
G0 X32.750 Y134.152
G1 Z2
G1 X33.356 Y135.364 F1000
G1 X32.750 Y133.545 F1000
G1 X32.750 Y132.939 F1000
G1 X33.053 Y132.636 F1000
G1 X33.356 Y132.636 F1000
G1 X33.962 Y132.939 F1000
G1 X34.265 Y133.242 F1000
G1 X34.871 Y134.152 F1000
G0 Z7
G0 Z7
G0 X37.242 Y134.758
G1 Z2
G1 X37.242 Y135.061 F1000
G1 X36.939 Y135.364 F1000
G1 X36.333 Y135.364 F1000
G1 X35.727 Y135.061 F1000
G1 X35.424 Y134.758 F1000
G1 X35.121 Y134.152 F1000
G1 X35.121 Y133.545 F1000
G1 X35.424 Y132.939 F1000
G1 X36.030 Y132.636 F1000
G1 X36.939 Y132.636 F1000
G1 X37.848 Y133.242 F1000
G1 X38.455 Y134.152 F1000
G0 Z7
G0 Z7
G0 X40.455 Y134.152
G1 Z2
G1 X41.061 Y135.061 F1000
G1 X41.364 Y135.667 F1000
G1 X41.061 Y134.455 F1000
G1 X39.242 Y129.000 F1000
G0 Z7
G0 X41.061 Y134.455
G1 Z2
G1 X41.364 Y135.061 F1000
G1 X41.970 Y135.364 F1000
G1 X42.576 Y135.364 F1000
G1 X43.182 Y135.061 F1000
G1 X43.485 Y134.455 F1000
G1 X43.485 Y133.848 F1000
G1 X43.182 Y133.242 F1000
G1 X42.879 Y132.939 F1000
G1 X42.273 Y132.636 F1000
G0 Z7
G0 X41.061 Y132.939
G1 Z2
G1 X41.667 Y132.636 F1000
G1 X42.576 Y132.636 F1000
G1 X43.485 Y132.939 F1000
G1 X44.091 Y133.242 F1000
G1 X45.000 Y134.152 F1000
G0 Z7
G0 Z7
G0 X45.250 Y134.152
G1 Z2
G1 X45.856 Y135.364 F1000
G1 X45.250 Y133.545 F1000
G1 X45.250 Y132.939 F1000
G1 X45.553 Y132.636 F1000
G1 X46.159 Y132.636 F1000
G1 X46.765 Y132.939 F1000
G1 X47.371 Y133.545 F1000
G1 X47.977 Y134.455 F1000
G0 Z7
G0 X48.280 Y135.364
G1 Z2
G1 X47.674 Y133.545 F1000
G1 X47.674 Y132.939 F1000
G1 X47.977 Y132.636 F1000
G1 X48.280 Y132.636 F1000
G1 X48.886 Y132.939 F1000
G1 X49.189 Y133.242 F1000
G1 X49.795 Y134.152 F1000
G0 Z7
G0 Z7
G0 X50.045 Y134.152
G1 Z2
G1 X50.652 Y135.061 F1000
G1 X51.258 Y135.364 F1000
G1 X51.561 Y135.061 F1000
G1 X51.561 Y134.758 F1000
G1 X51.258 Y133.545 F1000
G1 X50.955 Y132.636 F1000
G0 Z7
G0 X51.258 Y133.545
G1 Z2
G1 X51.561 Y134.152 F1000
G1 X52.167 Y135.061 F1000
G1 X52.773 Y135.364 F1000
G1 X53.379 Y135.364 F1000
G1 X53.682 Y135.061 F1000
G1 X53.682 Y134.455 F1000
G1 X53.379 Y133.545 F1000
G1 X53.379 Y132.939 F1000
G1 X53.682 Y132.636 F1000
G1 X53.985 Y132.636 F1000
G1 X54.591 Y132.939 F1000
G1 X54.894 Y133.242 F1000
G1 X55.500 Y134.152 F1000
G0 Z7
G0 Z7
G0 X57.871 Y134.758
G1 Z2
G1 X57.871 Y135.061 F1000
G1 X57.568 Y135.364 F1000
G1 X56.962 Y135.364 F1000
G1 X56.356 Y135.061 F1000
G1 X56.053 Y134.758 F1000
G1 X55.750 Y134.152 F1000
G1 X55.750 Y133.545 F1000
G1 X56.053 Y132.939 F1000
G1 X56.659 Y132.636 F1000
G1 X57.568 Y132.636 F1000
G1 X58.477 Y133.242 F1000
G1 X59.083 Y134.152 F1000
G0 Z7
G0 Z7
G0 X59.333 Y134.152
G1 Z2
G1 X59.939 Y135.061 F1000
G1 X60.545 Y136.273 F1000
G0 Z7
G0 X61.455 Y139.000
G1 Z2
G1 X59.636 Y133.545 F1000
G1 X59.636 Y132.939 F1000
G1 X59.939 Y132.636 F1000
G1 X60.545 Y132.636 F1000
G1 X61.152 Y132.939 F1000
G1 X61.455 Y133.242 F1000
G1 X62.061 Y134.152 F1000
G0 Z7
G0 X59.636 Y136.576
G1 Z2
G1 X61.758 Y136.576 F1000
G0 Z7
G0 Z7
G0 X62.311 Y134.152
G1 Z2
G1 X62.917 Y135.364 F1000
G1 X62.311 Y133.545 F1000
G1 X62.311 Y132.939 F1000
G1 X62.614 Y132.636 F1000
G1 X63.220 Y132.636 F1000
G1 X63.826 Y132.939 F1000
G1 X64.432 Y133.545 F1000
G1 X65.038 Y134.455 F1000
G0 Z7
G0 X65.341 Y135.364
G1 Z2
G1 X64.735 Y133.545 F1000
G1 X64.735 Y132.939 F1000
G1 X65.038 Y132.636 F1000
G1 X65.341 Y132.636 F1000
G1 X65.947 Y132.939 F1000
G1 X66.250 Y133.242 F1000
G1 X66.856 Y134.152 F1000
G0 Z7
G0 Z7
G0 X69.833 Y134.455
G1 Z2
G1 X69.530 Y135.061 F1000
G1 X68.924 Y135.364 F1000
G1 X68.318 Y135.364 F1000
G1 X67.712 Y135.061 F1000
G1 X67.409 Y134.758 F1000
G1 X67.106 Y134.152 F1000
G1 X67.106 Y133.545 F1000
G1 X67.409 Y132.939 F1000
G1 X68.015 Y132.636 F1000
G1 X68.621 Y132.636 F1000
G1 X69.227 Y132.939 F1000
G1 X69.530 Y133.545 F1000
G1 X70.136 Y135.364 F1000
G1 X69.833 Y133.848 F1000
G1 X69.833 Y132.939 F1000
G1 X70.136 Y132.636 F1000
G1 X70.439 Y132.636 F1000
G1 X71.045 Y132.939 F1000
G1 X71.348 Y133.242 F1000
G1 X71.955 Y134.152 F1000
G0 Z7
G0 Z7
G0 X72.205 Y134.152
G1 Z2
G1 X72.811 Y135.061 F1000
G1 X73.417 Y136.273 F1000
G0 Z7
G0 X74.326 Y139.000
G1 Z2
G1 X72.508 Y133.545 F1000
G1 X72.508 Y132.939 F1000
G1 X72.811 Y132.636 F1000
G1 X73.417 Y132.636 F1000
G1 X74.023 Y132.939 F1000
G1 X74.326 Y133.242 F1000
G1 X74.932 Y134.152 F1000
G0 Z7
G0 X72.508 Y136.576
G1 Z2
G1 X74.629 Y136.576 F1000
G0 Z7
G0 Z7
G0 X76.091 Y136.879
G1 Z2
G1 X76.091 Y136.576 F1000
G1 X76.394 Y136.576 F1000
G1 X76.394 Y136.879 F1000
G1 X76.091 Y136.879 F1000
G0 Z7
G0 X75.182 Y134.152
G1 Z2
G1 X75.788 Y135.364 F1000
G1 X75.182 Y133.545 F1000
G1 X75.182 Y132.939 F1000
G1 X75.485 Y132.636 F1000
G1 X75.788 Y132.636 F1000
G1 X76.394 Y132.939 F1000
G1 X76.697 Y133.242 F1000
G1 X77.303 Y134.152 F1000
G0 Z7
G0 Z7
G0 X79.371 Y135.364
G1 Z2
G1 X78.765 Y135.364 F1000
G1 X78.159 Y135.061 F1000
G1 X77.856 Y134.758 F1000
G1 X77.553 Y134.152 F1000
G1 X77.553 Y133.545 F1000
G1 X77.856 Y132.939 F1000
G1 X78.462 Y132.636 F1000
G1 X79.068 Y132.636 F1000
G1 X79.674 Y132.939 F1000
G1 X79.977 Y133.242 F1000
G1 X80.280 Y133.848 F1000
G1 X80.280 Y134.455 F1000
G1 X79.977 Y135.061 F1000
G1 X79.371 Y135.364 F1000
G1 X79.068 Y135.061 F1000
G1 X79.068 Y134.455 F1000
G1 X79.371 Y133.848 F1000
G1 X79.977 Y133.545 F1000
G1 X80.886 Y133.545 F1000
G1 X81.492 Y133.848 F1000
G1 X81.795 Y134.152 F1000
G0 Z7
G0 Z7
G0 X82.045 Y134.152
G1 Z2
G1 X82.652 Y135.061 F1000
G1 X83.258 Y135.364 F1000
G1 X83.561 Y135.061 F1000
G1 X83.561 Y134.758 F1000
G1 X83.258 Y133.545 F1000
G1 X82.955 Y132.636 F1000
G0 Z7
G0 X83.258 Y133.545
G1 Z2
G1 X83.561 Y134.152 F1000
G1 X84.167 Y135.061 F1000
G1 X84.773 Y135.364 F1000
G1 X85.379 Y135.364 F1000
G1 X85.682 Y135.061 F1000
G1 X85.682 Y134.455 F1000
G1 X85.379 Y133.545 F1000
G1 X85.379 Y132.939 F1000
G1 X85.682 Y132.636 F1000
G1 X85.985 Y132.636 F1000
G1 X86.591 Y132.939 F1000
G1 X86.894 Y133.242 F1000
G1 X87.500 Y134.152 F1000
G0 Z7
G0 Z7
G0 X92.227 Y134.455
G1 Z2
G1 X91.924 Y135.061 F1000
G1 X91.318 Y135.364 F1000
G1 X90.712 Y135.364 F1000
G1 X90.106 Y135.061 F1000
G1 X89.803 Y134.758 F1000
G1 X89.500 Y134.152 F1000
G1 X89.500 Y133.545 F1000
G1 X89.803 Y132.939 F1000
G1 X90.409 Y132.636 F1000
G1 X91.015 Y132.636 F1000
G1 X91.621 Y132.939 F1000
G1 X91.924 Y133.545 F1000
G1 X92.530 Y135.364 F1000
G1 X92.227 Y133.848 F1000
G1 X92.227 Y132.939 F1000
G1 X92.530 Y132.636 F1000
G1 X92.833 Y132.636 F1000
G1 X93.439 Y132.939 F1000
G1 X93.742 Y133.242 F1000
G1 X94.348 Y134.152 F1000
G0 Z7
G0 Z7
G0 X94.598 Y134.152
G1 Z2
G1 X95.205 Y135.061 F1000
G1 X95.811 Y135.364 F1000
G1 X96.114 Y135.061 F1000
G1 X96.114 Y134.758 F1000
G1 X95.811 Y133.545 F1000
G1 X95.508 Y132.636 F1000
G0 Z7
G0 X95.811 Y133.545
G1 Z2
G1 X96.114 Y134.152 F1000
G1 X96.720 Y135.061 F1000
G1 X97.326 Y135.364 F1000
G1 X97.932 Y135.364 F1000
G1 X98.235 Y135.061 F1000
G1 X98.235 Y134.455 F1000
G1 X97.932 Y133.545 F1000
G1 X97.932 Y132.939 F1000
G1 X98.235 Y132.636 F1000
G1 X98.538 Y132.636 F1000
G1 X99.144 Y132.939 F1000
G1 X99.447 Y133.242 F1000
G1 X100.053 Y134.152 F1000
G0 Z7
G0 Z7
G0 X103.030 Y134.455
G1 Z2
G1 X102.727 Y135.061 F1000
G1 X102.121 Y135.364 F1000
G1 X101.515 Y135.364 F1000
G1 X100.909 Y135.061 F1000
G1 X100.606 Y134.758 F1000
G1 X100.303 Y134.152 F1000
G1 X100.303 Y133.545 F1000
G1 X100.606 Y132.939 F1000
G1 X101.212 Y132.636 F1000
G1 X101.818 Y132.636 F1000
G1 X102.424 Y132.939 F1000
G1 X102.727 Y133.545 F1000
G1 X104.545 Y139.000 F1000
G0 Z7
G0 X103.333 Y135.364
G1 Z2
G1 X103.030 Y133.848 F1000
G1 X103.030 Y132.939 F1000
G1 X103.333 Y132.636 F1000
G1 X103.636 Y132.636 F1000
G1 X104.242 Y132.939 F1000
G1 X104.545 Y133.242 F1000
G1 X105.152 Y134.152 F1000
G0 Z7
G0 Z7
G0 X107.152 Y134.152
G1 Z2
G1 X107.758 Y135.061 F1000
G1 X108.061 Y135.667 F1000
G1 X108.061 Y135.061 F1000
G1 X108.667 Y134.152 F1000
G1 X108.970 Y133.545 F1000
G1 X108.970 Y132.939 F1000
G1 X108.364 Y132.636 F1000
G0 Z7
G0 X107.152 Y132.939
G1 Z2
G1 X107.758 Y132.636 F1000
G1 X108.970 Y132.636 F1000
G1 X109.576 Y132.939 F1000
G1 X109.879 Y133.242 F1000
G1 X110.485 Y134.152 F1000
G0 Z7
G0 Z7
G0 X110.735 Y134.152
G1 Z2
G1 X111.341 Y135.364 F1000
G1 X110.735 Y133.545 F1000
G1 X110.735 Y132.939 F1000
G1 X111.038 Y132.636 F1000
G1 X111.644 Y132.636 F1000
G1 X112.250 Y132.939 F1000
G1 X112.856 Y133.545 F1000
G1 X113.462 Y134.455 F1000
G0 Z7
G0 X113.765 Y135.364
G1 Z2
G1 X111.947 Y129.909 F1000
G1 X111.644 Y129.303 F1000
G1 X111.038 Y129.000 F1000
G1 X110.735 Y129.303 F1000
G1 X110.735 Y129.909 F1000
G1 X111.038 Y130.818 F1000
G1 X111.947 Y131.727 F1000
G1 X112.856 Y132.333 F1000
G1 X113.462 Y132.636 F1000
G1 X114.371 Y133.242 F1000
G1 X115.280 Y134.152 F1000
G0 Z7
G0 Z7
G0 X115.530 Y134.152
G1 Z2
G1 X116.136 Y135.061 F1000
G1 X116.742 Y135.364 F1000
G1 X117.045 Y135.061 F1000
G1 X117.045 Y134.758 F1000
G1 X116.742 Y133.545 F1000
G1 X116.439 Y132.636 F1000
G0 Z7
G0 X116.742 Y133.545
G1 Z2
G1 X117.045 Y134.152 F1000
G1 X117.652 Y135.061 F1000
G1 X118.258 Y135.364 F1000
G1 X118.864 Y135.364 F1000
G1 X119.167 Y135.061 F1000
G1 X119.167 Y134.758 F1000
G1 X118.864 Y133.545 F1000
G1 X118.561 Y132.636 F1000
G0 Z7
G0 X118.864 Y133.545
G1 Z2
G1 X119.167 Y134.152 F1000
G1 X119.773 Y135.061 F1000
G1 X120.379 Y135.364 F1000
G1 X120.985 Y135.364 F1000
G1 X121.288 Y135.061 F1000
G1 X121.288 Y134.455 F1000
G1 X120.985 Y133.545 F1000
G1 X120.985 Y132.939 F1000
G1 X121.288 Y132.636 F1000
G1 X121.591 Y132.636 F1000
G1 X122.197 Y132.939 F1000
G1 X122.500 Y133.242 F1000
G1 X123.106 Y134.152 F1000
G0 Z7
G0 Z7
G0 X123.356 Y134.152
G1 Z2
G1 X123.962 Y135.061 F1000
G1 X124.871 Y136.576 F1000
G1 X125.174 Y137.182 F1000
G1 X125.477 Y138.091 F1000
G1 X125.477 Y138.697 F1000
G1 X125.174 Y139.000 F1000
G1 X124.568 Y138.697 F1000
G1 X124.265 Y138.091 F1000
G1 X123.962 Y136.879 F1000
G1 X123.659 Y134.758 F1000
G1 X123.659 Y132.939 F1000
G1 X123.962 Y132.636 F1000
G1 X124.265 Y132.636 F1000
G1 X124.871 Y132.939 F1000
G1 X125.477 Y133.545 F1000
G1 X125.780 Y134.455 F1000
G1 X125.780 Y135.364 F1000
G1 X126.083 Y134.152 F1000
G1 X126.386 Y133.848 F1000
G1 X126.992 Y133.848 F1000
G1 X127.598 Y134.152 F1000
G0 Z7
G0 Z7
G0 X129.667 Y135.364
G1 Z2
G1 X129.061 Y135.364 F1000
G1 X128.455 Y135.061 F1000
G1 X128.152 Y134.758 F1000
G1 X127.848 Y134.152 F1000
G1 X127.848 Y133.545 F1000
G1 X128.152 Y132.939 F1000
G1 X128.758 Y132.636 F1000
G1 X129.364 Y132.636 F1000
G1 X129.970 Y132.939 F1000
G1 X130.273 Y133.242 F1000
G1 X130.576 Y133.848 F1000
G1 X130.576 Y134.455 F1000
G1 X130.273 Y135.061 F1000
G1 X129.667 Y135.364 F1000
G1 X129.364 Y135.061 F1000
G1 X129.364 Y134.455 F1000
G1 X129.667 Y133.848 F1000
G1 X130.273 Y133.545 F1000
G1 X131.182 Y133.545 F1000
G1 X131.788 Y133.848 F1000
G1 X132.091 Y134.152 F1000
G0 Z7
G0 Z7
G0 X132.341 Y134.152
G1 Z2
G1 X132.947 Y135.061 F1000
G1 X133.856 Y136.576 F1000
G1 X134.159 Y137.182 F1000
G1 X134.462 Y138.091 F1000
G1 X134.462 Y138.697 F1000
G1 X134.159 Y139.000 F1000
G1 X133.553 Y138.697 F1000
G1 X133.250 Y138.091 F1000
G1 X132.947 Y136.879 F1000
G1 X132.644 Y134.758 F1000
G1 X132.644 Y132.939 F1000
G1 X132.947 Y132.636 F1000
G1 X133.250 Y132.636 F1000
G1 X133.856 Y132.939 F1000
G1 X134.159 Y133.242 F1000
G1 X134.765 Y134.152 F1000
G0 Z7
G0 Z7
G0 X135.015 Y134.152
G1 Z2
G1 X135.621 Y135.061 F1000
G1 X135.924 Y135.667 F1000
G1 X135.924 Y135.061 F1000
G1 X136.530 Y134.152 F1000
G1 X136.833 Y133.545 F1000
G1 X136.833 Y132.939 F1000
G1 X136.227 Y132.636 F1000
G0 Z7
G0 X135.015 Y132.939
G1 Z2
G1 X135.621 Y132.636 F1000
G1 X136.833 Y132.636 F1000
G1 X137.439 Y132.939 F1000
G1 X137.742 Y133.242 F1000
G1 X138.348 Y134.152 F1000
G0 Z7
G0 Z7
G0 X11.212 Y126.000
G1 Z2
G1 X11.212 Y123.879 F1000
G0 Z7
G0 X13.636 Y126.000
G1 Z2
G1 X13.636 Y123.879 F1000
G0 Z7
G0 Z7
G0 X15.098 Y121.152
G1 Z2
G1 X14.795 Y120.848 F1000
G1 X15.098 Y120.545 F1000
G1 X15.402 Y120.848 F1000
G1 X15.098 Y121.152 F1000
G0 Z7
G0 Z7
G0 X17.167 Y120.848
G1 Z2
G1 X16.864 Y120.545 F1000
G1 X16.561 Y120.848 F1000
G1 X16.864 Y121.152 F1000
G1 X17.167 Y120.848 F1000
G1 X17.167 Y120.242 F1000
G1 X16.561 Y119.636 F1000
G0 Z7
G0 Z7
G0 X18.629 Y123.273
G1 Z2
G1 X18.326 Y122.970 F1000
G1 X18.629 Y122.667 F1000
G1 X18.932 Y122.970 F1000
G1 X18.629 Y123.273 F1000
G0 Z7
G0 X18.629 Y121.152
G1 Z2
G1 X18.326 Y120.848 F1000
G1 X18.629 Y120.545 F1000
G1 X18.932 Y120.848 F1000
G1 X18.629 Y121.152 F1000
G0 Z7
G0 Z7
G0 X20.394 Y123.273
G1 Z2
G1 X20.091 Y122.970 F1000
G1 X20.394 Y122.667 F1000
G1 X20.697 Y122.970 F1000
G1 X20.394 Y123.273 F1000
G0 Z7
G0 X20.697 Y120.848
G1 Z2
G1 X20.394 Y120.545 F1000
G1 X20.091 Y120.848 F1000
G1 X20.394 Y121.152 F1000
G1 X20.697 Y120.848 F1000
G1 X20.697 Y120.242 F1000
G1 X20.091 Y119.636 F1000
G0 Z7
G0 Z7
G0 X22.462 Y126.000
G1 Z2
G1 X22.462 Y121.758 F1000
G0 Z7
G0 X22.462 Y120.242
G1 Z2
G1 X22.159 Y119.939 F1000
G1 X22.462 Y119.636 F1000
G1 X22.765 Y119.939 F1000
G1 X22.462 Y120.242 F1000
G0 Z7
G0 Z7
G0 X23.924 Y124.485
G1 Z2
G1 X23.924 Y124.788 F1000
G1 X24.227 Y125.394 F1000
G1 X24.530 Y125.697 F1000
G1 X25.136 Y126.000 F1000
G1 X26.348 Y126.000 F1000
G1 X26.955 Y125.697 F1000
G1 X27.258 Y125.394 F1000
G1 X27.561 Y124.788 F1000
G1 X27.561 Y124.182 F1000
G1 X27.258 Y123.576 F1000
G1 X26.955 Y123.273 F1000
G1 X25.742 Y122.667 F1000
G1 X25.742 Y121.758 F1000
G0 Z7
G0 X25.742 Y120.242
G1 Z2
G1 X25.439 Y119.939 F1000
G1 X25.742 Y119.636 F1000
G1 X26.045 Y119.939 F1000
G1 X25.742 Y120.242 F1000
G0 Z7
G0 Z7
G0 X28.417 Y123.879
G1 Z2
G1 X28.417 Y122.667 F1000
G0 Z7
G0 Z7
G0 X29.879 Y126.000
G1 Z2
G1 X29.879 Y123.879 F1000
G0 Z7
G0 X32.303 Y126.000
G1 Z2
G1 X32.303 Y123.879 F1000
G0 Z7
G0 Z7
G0 X33.159 Y123.879
G1 Z2
G1 X33.159 Y122.667 F1000
G0 Z7
G0 Z7
G0 X37.348 Y125.091
G1 Z2
G1 X37.348 Y119.636 F1000
G0 Z7
G0 X34.621 Y122.364
G1 Z2
G1 X40.076 Y122.364 F1000
G0 Z7
G0 Z7
G0 X41.538 Y122.364
G1 Z2
G1 X46.992 Y122.364 F1000
G0 Z7
G0 Z7
G0 X49.667 Y124.182
G1 Z2
G1 X49.667 Y120.545 F1000
G0 Z7
G0 X48.152 Y123.273
G1 Z2
G1 X51.182 Y121.455 F1000
G0 Z7
G0 X51.182 Y123.273
G1 Z2
G1 X48.152 Y121.455 F1000
G0 Z7
G0 Z7
G0 X57.492 Y127.212
G1 Z2
G1 X52.038 Y117.515 F1000
G0 Z7
G0 Z7
G0 X58.955 Y123.273
G1 Z2
G1 X64.409 Y123.273 F1000
G0 Z7
G0 X58.955 Y121.455
G1 Z2
G1 X64.409 Y121.455 F1000
G0 Z7
G0 Z7
G0 X67.992 Y127.212
G1 Z2
G1 X67.386 Y126.606 F1000
G1 X66.780 Y125.697 F1000
G1 X66.174 Y124.485 F1000
G1 X65.871 Y122.970 F1000
G1 X65.871 Y121.758 F1000
G1 X66.174 Y120.242 F1000
G1 X66.780 Y119.030 F1000
G1 X67.386 Y118.121 F1000
G1 X67.992 Y117.515 F1000
G0 Z7
G0 Z7
G0 X69.152 Y127.212
G1 Z2
G1 X69.758 Y126.606 F1000
G1 X70.364 Y125.697 F1000
G1 X70.970 Y124.485 F1000
G1 X71.273 Y122.970 F1000
G1 X71.273 Y121.758 F1000
G1 X70.970 Y120.242 F1000
G1 X70.364 Y119.030 F1000
G1 X69.758 Y118.121 F1000
G1 X69.152 Y117.515 F1000
G0 Z7
G0 Z7
G0 X72.735 Y127.212
G1 Z2
G1 X72.735 Y117.515 F1000
G0 Z7
G0 X73.038 Y127.212
G1 Z2
G1 X73.038 Y117.515 F1000
G0 Z7
G0 X72.735 Y127.212
G1 Z2
G1 X74.856 Y127.212 F1000
G0 Z7
G0 X72.735 Y117.515
G1 Z2
G1 X74.856 Y117.515 F1000
G0 Z7
G0 Z7
G0 X77.833 Y127.212
G1 Z2
G1 X77.833 Y117.515 F1000
G0 Z7
G0 X78.136 Y127.212
G1 Z2
G1 X78.136 Y117.515 F1000
G0 Z7
G0 X76.015 Y127.212
G1 Z2
G1 X78.136 Y127.212 F1000
G0 Z7
G0 X76.015 Y117.515
G1 Z2
G1 X78.136 Y117.515 F1000
G0 Z7
G0 Z7
G0 X81.114 Y127.212
G1 Z2
G1 X80.508 Y126.909 F1000
G1 X80.205 Y126.606 F1000
G1 X79.902 Y126.000 F1000
G1 X79.902 Y125.394 F1000
G1 X80.205 Y124.788 F1000
G1 X80.508 Y124.485 F1000
G1 X80.811 Y123.879 F1000
G1 X80.811 Y123.273 F1000
G1 X80.205 Y122.667 F1000
G0 Z7
G0 X80.508 Y126.909
G1 Z2
G1 X80.205 Y126.303 F1000
G1 X80.205 Y125.697 F1000
G1 X80.508 Y125.091 F1000
G1 X80.811 Y124.788 F1000
G1 X81.114 Y124.182 F1000
G1 X81.114 Y123.576 F1000
G1 X80.811 Y122.970 F1000
G1 X79.598 Y122.364 F1000
G1 X80.811 Y121.758 F1000
G1 X81.114 Y121.152 F1000
G1 X81.114 Y120.545 F1000
G1 X80.811 Y119.939 F1000
G1 X80.508 Y119.636 F1000
G1 X80.205 Y119.030 F1000
G1 X80.205 Y118.424 F1000
G1 X80.508 Y117.818 F1000
G0 Z7
G0 X80.205 Y122.061
G1 Z2
G1 X80.811 Y121.455 F1000
G1 X80.811 Y120.848 F1000
G1 X80.508 Y120.242 F1000
G1 X80.205 Y119.939 F1000
G1 X79.902 Y119.333 F1000
G1 X79.902 Y118.727 F1000
G1 X80.205 Y118.121 F1000
G1 X80.508 Y117.818 F1000
G1 X81.114 Y117.515 F1000
G0 Z7
G0 Z7
G0 X82.879 Y127.212
G1 Z2
G1 X83.485 Y126.909 F1000
G1 X83.788 Y126.606 F1000
G1 X84.091 Y126.000 F1000
G1 X84.091 Y125.394 F1000
G1 X83.788 Y124.788 F1000
G1 X83.485 Y124.485 F1000
G1 X83.182 Y123.879 F1000
G1 X83.182 Y123.273 F1000
G1 X83.788 Y122.667 F1000
G0 Z7
G0 X83.485 Y126.909
G1 Z2
G1 X83.788 Y126.303 F1000
G1 X83.788 Y125.697 F1000
G1 X83.485 Y125.091 F1000
G1 X83.182 Y124.788 F1000
G1 X82.879 Y124.182 F1000
G1 X82.879 Y123.576 F1000
G1 X83.182 Y122.970 F1000
G1 X84.394 Y122.364 F1000
G1 X83.182 Y121.758 F1000
G1 X82.879 Y121.152 F1000
G1 X82.879 Y120.545 F1000
G1 X83.182 Y119.939 F1000
G1 X83.485 Y119.636 F1000
G1 X83.788 Y119.030 F1000
G1 X83.788 Y118.424 F1000
G1 X83.485 Y117.818 F1000
G0 Z7
G0 X83.788 Y122.061
G1 Z2
G1 X83.182 Y121.455 F1000
G1 X83.182 Y120.848 F1000
G1 X83.485 Y120.242 F1000
G1 X83.788 Y119.939 F1000
G1 X84.091 Y119.333 F1000
G1 X84.091 Y118.727 F1000
G1 X83.788 Y118.121 F1000
G1 X83.485 Y117.818 F1000
G1 X82.879 Y117.515 F1000
G0 Z7
G0 Z7
G0 X90.705 Y125.091
G1 Z2
G1 X85.856 Y122.364 F1000
G1 X90.705 Y119.636 F1000
G0 Z7
G0 Z7
G0 X92.167 Y125.091
G1 Z2
G1 X97.015 Y122.364 F1000
G1 X92.167 Y119.636 F1000
G0 Z7
G0 Z7
G0 X98.477 Y127.212
G1 Z2
G1 X98.477 Y117.515 F1000
G0 Z7
G0 Z7
G0 X104.182 Y123.576
G1 Z2
G1 X103.879 Y124.182 F1000
G1 X103.273 Y124.485 F1000
G1 X102.364 Y124.485 F1000
G1 X101.758 Y124.182 F1000
G1 X101.455 Y123.879 F1000
G1 X101.152 Y122.970 F1000
G1 X101.152 Y122.061 F1000
G1 X101.455 Y121.455 F1000
G1 X102.061 Y121.152 F1000
G1 X102.970 Y121.152 F1000
G1 X103.576 Y121.455 F1000
G1 X103.879 Y122.061 F1000
G0 Z7
G0 X102.364 Y124.485
G1 Z2
G1 X101.758 Y123.879 F1000
G1 X101.455 Y122.970 F1000
G1 X101.455 Y122.061 F1000
G1 X101.758 Y121.455 F1000
G1 X102.061 Y121.152 F1000
G0 Z7
G0 X104.182 Y124.485
G1 Z2
G1 X103.879 Y122.061 F1000
G1 X103.879 Y121.455 F1000
G1 X104.485 Y121.152 F1000
G1 X105.091 Y121.152 F1000
G1 X105.697 Y121.758 F1000
G1 X106.000 Y122.667 F1000
G1 X106.000 Y123.273 F1000
G1 X105.697 Y124.182 F1000
G1 X105.394 Y124.788 F1000
G1 X104.788 Y125.394 F1000
G1 X104.182 Y125.697 F1000
G1 X103.273 Y126.000 F1000
G1 X102.364 Y126.000 F1000
G1 X101.455 Y125.697 F1000
G1 X100.848 Y125.394 F1000
G1 X100.242 Y124.788 F1000
G1 X99.939 Y124.182 F1000
G1 X99.636 Y123.273 F1000
G1 X99.636 Y122.364 F1000
G1 X99.939 Y121.455 F1000
G1 X100.242 Y120.848 F1000
G1 X100.848 Y120.242 F1000
G1 X101.455 Y119.939 F1000
G1 X102.364 Y119.636 F1000
G1 X103.273 Y119.636 F1000
G1 X104.182 Y119.939 F1000
G1 X104.788 Y120.242 F1000
G1 X105.091 Y120.545 F1000
G0 Z7
G0 X104.485 Y124.485
G1 Z2
G1 X104.182 Y122.061 F1000
G1 X104.182 Y121.455 F1000
G1 X104.485 Y121.152 F1000
G0 Z7
G0 Z7
G0 X109.583 Y127.212
G1 Z2
G1 X107.462 Y117.515 F1000
G0 Z7
G0 X111.402 Y127.212
G1 Z2
G1 X109.280 Y117.515 F1000
G0 Z7
G0 X107.462 Y123.273
G1 Z2
G1 X111.705 Y123.273 F1000
G0 Z7
G0 X107.159 Y121.455
G1 Z2
G1 X111.402 Y121.455 F1000
G0 Z7
G0 Z7
G0 X114.379 Y127.212
G1 Z2
G1 X114.379 Y118.424 F1000
G0 Z7
G0 X115.591 Y127.212
G1 Z2
G1 X115.591 Y118.424 F1000
G0 Z7
G0 X117.106 Y125.091
G1 Z2
G1 X116.500 Y125.697 F1000
G1 X115.591 Y126.000 F1000
G1 X114.379 Y126.000 F1000
G1 X113.470 Y125.697 F1000
G1 X112.864 Y125.091 F1000
G1 X112.864 Y124.485 F1000
G1 X113.167 Y123.879 F1000
G1 X113.470 Y123.576 F1000
G1 X114.076 Y123.273 F1000
G1 X115.894 Y122.667 F1000
G1 X116.500 Y122.364 F1000
G1 X116.803 Y122.061 F1000
G1 X117.106 Y121.455 F1000
G1 X117.106 Y120.545 F1000
G1 X116.500 Y119.939 F1000
G1 X115.591 Y119.636 F1000
G1 X114.379 Y119.636 F1000
G1 X113.470 Y119.939 F1000
G1 X112.864 Y120.545 F1000
G0 Z7
G0 Z7
G0 X123.720 Y126.000
G1 Z2
G1 X118.265 Y119.636 F1000
G0 Z7
G0 X119.780 Y126.000
G1 Z2
G1 X120.386 Y125.394 F1000
G1 X120.386 Y124.788 F1000
G1 X120.083 Y124.182 F1000
G1 X119.477 Y123.879 F1000
G1 X118.871 Y123.879 F1000
G1 X118.265 Y124.485 F1000
G1 X118.265 Y125.091 F1000
G1 X118.568 Y125.697 F1000
G1 X119.174 Y126.000 F1000
G1 X119.780 Y126.000 F1000
G1 X120.386 Y125.697 F1000
G1 X121.295 Y125.394 F1000
G1 X122.205 Y125.394 F1000
G1 X123.114 Y125.697 F1000
G1 X123.720 Y126.000 F1000
G0 Z7
G0 X122.508 Y121.758
G1 Z2
G1 X121.902 Y121.455 F1000
G1 X121.598 Y120.848 F1000
G1 X121.598 Y120.242 F1000
G1 X122.205 Y119.636 F1000
G1 X122.811 Y119.636 F1000
G1 X123.417 Y119.939 F1000
G1 X123.720 Y120.545 F1000
G1 X123.720 Y121.152 F1000
G1 X123.114 Y121.758 F1000
G1 X122.508 Y121.758 F1000
G0 Z7
G0 Z7
G0 X130.939 Y123.273
G1 Z2
G1 X130.939 Y123.576 F1000
G1 X130.636 Y123.879 F1000
G1 X130.333 Y123.879 F1000
G1 X130.030 Y123.576 F1000
G1 X129.727 Y122.970 F1000
G1 X129.121 Y121.455 F1000
G1 X128.515 Y120.545 F1000
G1 X127.909 Y119.939 F1000
G1 X127.303 Y119.636 F1000
G1 X126.091 Y119.636 F1000
G1 X125.485 Y119.939 F1000
G1 X125.182 Y120.242 F1000
G1 X124.879 Y120.848 F1000
G1 X124.879 Y121.455 F1000
G1 X125.182 Y122.061 F1000
G1 X125.485 Y122.364 F1000
G1 X127.606 Y123.576 F1000
G1 X127.909 Y123.879 F1000
G1 X128.212 Y124.485 F1000
G1 X128.212 Y125.091 F1000
G1 X127.909 Y125.697 F1000
G1 X127.303 Y126.000 F1000
G1 X126.697 Y125.697 F1000
G1 X126.394 Y125.091 F1000
G1 X126.394 Y124.485 F1000
G1 X126.697 Y123.576 F1000
G1 X127.303 Y122.667 F1000
G1 X128.818 Y120.545 F1000
G1 X129.424 Y119.939 F1000
G1 X130.030 Y119.636 F1000
G1 X130.636 Y119.636 F1000
G1 X130.939 Y119.939 F1000
G1 X130.939 Y120.242 F1000
G0 Z7
G0 Z7
G0 X133.614 Y126.606
G1 Z2
G1 X131.189 Y122.364 F1000
G0 Z7
G0 X133.614 Y126.606
G1 Z2
G1 X136.038 Y122.364 F1000
G0 Z7
G0 Z7
G0 X136.288 Y126.000
G1 Z2
G1 X140.530 Y118.727 F1000
G0 Z7
G0 Z7
G0 X141.689 Y121.455
G1 Z2
G1 X141.689 Y122.061 F1000
G1 X141.992 Y122.970 F1000
G1 X142.598 Y123.273 F1000
G1 X143.205 Y123.273 F1000
G1 X143.811 Y122.970 F1000
G1 X145.023 Y122.061 F1000
G1 X145.629 Y121.758 F1000
G1 X146.235 Y121.758 F1000
G1 X146.841 Y122.061 F1000
G1 X147.144 Y122.667 F1000
G0 Z7
G0 X141.689 Y122.061
G1 Z2
G1 X141.992 Y122.667 F1000
G1 X142.598 Y122.970 F1000
G1 X143.205 Y122.970 F1000
G1 X143.811 Y122.667 F1000
G1 X145.023 Y121.758 F1000
G1 X145.629 Y121.455 F1000
G1 X146.235 Y121.455 F1000
G1 X146.841 Y121.758 F1000
G1 X147.144 Y122.667 F1000
G1 X147.144 Y123.273 F1000
G0 Z7
G0 Z7
G0 X148.909 Y124.485
G1 Z2
G1 X148.303 Y123.879 F1000
G1 X148.303 Y123.273 F1000
G1 X148.606 Y122.970 F1000
G1 X148.909 Y123.273 F1000
G1 X148.606 Y123.576 F1000
G1 X148.303 Y123.273 F1000
G0 Z7
G0 Z7
G0 X150.371 Y123.273
G1 Z2
G1 X155.826 Y123.273 F1000
G0 Z7
G0 X150.371 Y121.455
G1 Z2
G1 X155.826 Y121.455 F1000
G0 Z7
G0 Z7
G0 X156.076 Y117.515
G1 Z2
G1 X162.136 Y117.515 F1000
G0 Z7
G0 Z7
G0 X0 Y0
M84 ; Disable motors